{
"type": "FeatureCollection",
"name": "AKM_Boundary",
"crs": { "type": "name", "properties": { "name": "urn:ogc:def:crs:OGC:1.3:CRS84" } },
"features": [
{ "type": "Feature", "properties": { }, "geometry": { "type": "Polygon", "coordinates": [ [ [ 88.630932965605012, 22.820628909984869 ], [ 88.630413467555854, 22.820399468693289 ], [ 88.630662393704412, 22.820165039148229 ], [ 88.630418878993865, 22.820145087678952 ], [ 88.630451347621914, 22.820035354545666 ], [ 88.630581222134211, 22.819995451566179 ], [ 88.630564987820193, 22.819830851652203 ], [ 88.630429701869886, 22.819761021325558 ], [ 88.630418878993865, 22.819631336338205 ], [ 88.630624513638324, 22.819636324224621 ], [ 88.630564987820193, 22.819511627009497 ], [ 88.630673216580433, 22.81942683283798 ], [ 88.630527107754105, 22.819127558869429 ], [ 88.630326884547642, 22.819077679810722 ], [ 88.630224067225399, 22.818923054612629 ], [ 88.629921026696707, 22.818858211735375 ], [ 88.629347414267428, 22.818952982084028 ], [ 88.628849561970284, 22.819391917575544 ], [ 88.628135252152688, 22.81978097285111 ], [ 88.627361416516919, 22.819481699660873 ], [ 88.626809449839683, 22.818329491737753 ], [ 88.62637653479868, 22.817985323843818 ], [ 88.625678459295102, 22.817825709452848 ], [ 88.624141610899628, 22.816698427490405 ], [ 88.624379714172164, 22.815561160126293 ], [ 88.623957622007225, 22.814733143702973 ], [ 88.623275780817664, 22.814104645948898 ], [ 88.623340718073834, 22.813496097741037 ], [ 88.622777928520549, 22.812977333187639 ], [ 88.622842865776676, 22.812568305896775 ], [ 88.622377482107638, 22.812029585151787 ], [ 88.622431596487758, 22.811431004047495 ], [ 88.622558765281028, 22.811004513406054 ], [ 88.622564176719038, 22.810575527320331 ], [ 88.622369364950615, 22.810455810032057 ], [ 88.622033855793845, 22.810465786476762 ], [ 88.621503534868637, 22.810356045544797 ], [ 88.62110308845574, 22.810410916021834 ], [ 88.620994859695486, 22.81036602199681 ], [ 88.620437481580225, 22.810291198588907 ], [ 88.619950452159117, 22.810670303432275 ], [ 88.619896337778997, 22.810939666758841 ], [ 88.619485068490064, 22.811328746179139 ], [ 88.619246965217528, 22.811807611632457 ], [ 88.619236142341492, 22.812216641207474 ], [ 88.619593297250319, 22.812565811824165 ], [ 88.619560828622241, 22.812944910337457 ], [ 88.619723171762601, 22.813104530448463 ], [ 88.619777286142735, 22.813523532349915 ], [ 88.619452599862001, 22.814002390087623 ], [ 88.619485068490064, 22.814690745136193 ], [ 88.619311902473655, 22.815199527066593 ], [ 88.618911456060758, 22.815688354974206 ], [ 88.618922278936779, 22.815917804203355 ], [ 88.618738290044362, 22.816286917369574 ], [ 88.618305375003388, 22.816685957505019 ], [ 88.617872459962399, 22.816895453108089 ], [ 88.61743954492141, 22.817254587677876 ], [ 88.61733131616117, 22.817434154607628 ], [ 88.617504482177566, 22.817643649059754 ], [ 88.618034803102773, 22.817992805763801 ], [ 88.617929280061546, 22.818091317671968 ], [ 88.617931985780544, 22.818208534279957 ], [ 88.617653296722921, 22.818278365402723 ], [ 88.617426016326391, 22.818240955877119 ], [ 88.617136504392732, 22.818083835757381 ], [ 88.616814523830982, 22.818093811643397 ], [ 88.616433017451143, 22.818093811643397 ], [ 88.616170562707538, 22.818133715180121 ], [ 88.615899990806923, 22.818166136795096 ], [ 88.615824230674761, 22.818303305080743 ], [ 88.61584452356729, 22.818416780558053 ], [ 88.614756824526836, 22.819274701986132 ], [ 88.614756824526836, 22.819638818167732 ], [ 88.615238442509934, 22.820177508815021 ], [ 88.615243853947916, 22.820451841196046 ], [ 88.615330436956128, 22.820586513253559 ], [ 88.615254676823952, 22.820691258095096 ], [ 88.61497328204733, 22.820800990699802 ], [ 88.61484340753502, 22.820960601603343 ], [ 88.614816350344967, 22.82132471327678 ], [ 88.614583658510426, 22.821718750840059 ], [ 88.614594481386447, 22.822117775058508 ], [ 88.614697298708691, 22.822202567554271 ], [ 88.614821761782963, 22.822461932507647 ], [ 88.615108567997623, 22.822646480346698 ], [ 88.615200562443846, 22.822721296966936 ], [ 88.615287145452029, 22.822990636459394 ], [ 88.615173505253779, 22.823180171338393 ], [ 88.614827173220974, 22.823469460908143 ], [ 88.614583658510426, 22.823718847974909 ], [ 88.614031691833176, 22.823853516801012 ], [ 88.613815234312696, 22.823843541336984 ], [ 88.613696182676421, 22.823928332757962 ], [ 88.612684243768115, 22.823888430919368 ], [ 88.612321677421306, 22.823783688537443 ], [ 88.611921231008395, 22.823519338358047 ], [ 88.611650659107781, 22.823479436399587 ], [ 88.611298915636993, 22.823299877441809 ], [ 88.610763183273775, 22.822870930084086 ], [ 88.610265330976645, 22.822606578132426 ], [ 88.607943824069352, 22.822422030239281 ], [ 88.607440560334226, 22.822521785888256 ], [ 88.606742484830647, 22.822177628590406 ], [ 88.606737073392623, 22.821888336275777 ], [ 88.606439444301969, 22.821604031160824 ], [ 88.605232693625226, 22.821145151477324 ], [ 88.604512972369591, 22.820980552953127 ], [ 88.603685022353702, 22.821219968922534 ], [ 88.602451214486919, 22.821863397254361 ], [ 88.601742316107305, 22.822372152387388 ], [ 88.601693613165196, 22.823080416171805 ], [ 88.601174115116009, 22.82414779266113 ], [ 88.600854840273314, 22.82471140397336 ], [ 88.600362399414195, 22.824935850306478 ], [ 88.599713026852712, 22.825679014412795 ], [ 88.599220585993606, 22.826506964276945 ], [ 88.599069065729253, 22.827170318064553 ], [ 88.599193528803539, 22.827684040957106 ], [ 88.599366694819935, 22.828127935875621 ], [ 88.599328814753846, 22.828788787988177 ], [ 88.59832769872159, 22.82995337616568 ], [ 88.597483514391669, 22.830452126084836 ], [ 88.596287586590961, 22.831160347829638 ], [ 88.595524573831213, 22.831893503077378 ], [ 88.595097070228277, 22.832422170396946 ], [ 88.595129538856341, 22.832846100254365 ], [ 88.595513750955206, 22.833698943378419 ], [ 88.595557042459305, 22.833903425438319 ], [ 88.596060306194431, 22.835025577613926 ], [ 88.596020960530595, 22.835361442194902 ], [ 88.595873047891587, 22.835730502643813 ], [ 88.59568905899917, 22.83667476085683 ], [ 88.595739565753945, 22.836907499550552 ], [ 88.595663805621797, 22.837027193580873 ], [ 88.595793680134079, 22.83749599418573 ], [ 88.596010137654574, 22.837771954070163 ], [ 88.59651520520238, 22.838310572955024 ], [ 88.596605395835923, 22.838500086499966 ], [ 88.596370900188717, 22.83862310392292 ], [ 88.596590063428224, 22.838791005901754 ], [ 88.59662974730702, 22.838869969632068 ], [ 88.597105953852122, 22.839056157614664 ], [ 88.598419129476412, 22.838816773018809 ], [ 88.600500729298474, 22.838324703360062 ], [ 88.600544020802616, 22.838404498560784 ], [ 88.600991366344999, 22.839255644456124 ], [ 88.601878842179019, 22.839820855584957 ], [ 88.602636443500742, 22.8401466821098 ], [ 88.603559995588171, 22.840519054325441 ], [ 88.604779372953601, 22.84101111604695 ], [ 88.605948243564256, 22.84131699135509 ], [ 88.607434585204956, 22.84129704298639 ], [ 88.607780917237733, 22.841802400758326 ], [ 88.607932437502086, 22.842101624869908 ], [ 88.608069527265073, 22.843032540118642 ], [ 88.60852408805809, 22.84324531985235 ], [ 88.610125873709734, 22.843724073036121 ], [ 88.611756520364096, 22.844242720416844 ], [ 88.612283233663931, 22.844521991264187 ], [ 88.61355311778415, 22.845053934148901 ], [ 88.615190979689189, 22.845346501848642 ], [ 88.615782630245221, 22.845166971743865 ], [ 88.61689828838206, 22.845168634060748 ], [ 88.616851389252602, 22.845331541015646 ], [ 88.616468980966403, 22.845550966401561 ], [ 88.616187586189781, 22.846016413017903 ], [ 88.616086572680217, 22.84631562785864 ], [ 88.616187586189781, 22.84700714408276 ], [ 88.616598855478728, 22.847199970095204 ], [ 88.616923541759462, 22.847126829226116 ], [ 88.617399748304535, 22.847126829226116 ], [ 88.617583286243715, 22.847260643740857 ], [ 88.617222523709572, 22.847583127868845 ], [ 88.616674164657653, 22.847596426166987 ], [ 88.615837195578422, 22.847330459957135 ], [ 88.61553415504973, 22.848500707389405 ], [ 88.614899212989627, 22.849351790105374 ], [ 88.614899212989627, 22.850375741937977 ], [ 88.615252760273123, 22.852137718922993 ], [ 88.615606307556604, 22.853826535807887 ], [ 88.615166177264953, 22.85407919164798 ], [ 88.614726046973288, 22.854424930457682 ], [ 88.614538450455541, 22.854750721992897 ], [ 88.614394145441878, 22.855036620043837 ], [ 88.614444652196639, 22.855189542010294 ], [ 88.614790984229444, 22.855202839564466 ], [ 88.614964150245825, 22.855335815034632 ], [ 88.615036302752657, 22.855468790374715 ], [ 88.614949719744459, 22.855881013102302 ], [ 88.615014657000586, 22.85615361131612 ], [ 88.615238329771756, 22.856226747329256 ], [ 88.615851626079831, 22.856306532025979 ], [ 88.615757827820957, 22.856978051367555 ], [ 88.615570231303195, 22.857509945521127 ], [ 88.615303267027926, 22.858021891678103 ], [ 88.615036302752642, 22.85838756632392 ], [ 88.614783768978739, 22.859072372559606 ], [ 88.614711616471894, 22.859517827190754 ], [ 88.614798199480106, 22.859836957969108 ], [ 88.615057948504699, 22.860229221857505 ], [ 88.615664029562055, 22.860176033600005 ], [ 88.61600314634417, 22.859916740546605 ], [ 88.616421630883792, 22.859378207239583 ], [ 88.616602012150864, 22.859211992824971 ], [ 88.617677084502631, 22.858493944217965 ], [ 88.617893542023126, 22.858227999326729 ], [ 88.618418451510351, 22.857671175525336 ], [ 88.618883835179446, 22.858518876524826 ], [ 88.61965225937719, 22.859679054813054 ], [ 88.619969730407249, 22.859828647281244 ], [ 88.620777838483747, 22.859765486036981 ], [ 88.620979865502875, 22.859788755972495 ], [ 88.621142208643235, 22.859908429863626 ], [ 88.621488540676012, 22.860041400730172 ], [ 88.621820442207451, 22.861384399189294 ], [ 88.621777150703338, 22.862434854079911 ], [ 88.621748289700619, 22.862813813661223 ], [ 88.621784365954028, 22.863332388217746 ], [ 88.621676137193788, 22.863731290376059 ], [ 88.62158955418559, 22.864455959634167 ], [ 88.621625630439013, 22.865180625027325 ], [ 88.621618415188308, 22.867048781288531 ], [ 88.621719428697872, 22.867667062222516 ], [ 88.621726643948548, 22.868431599271315 ], [ 88.621784365954028, 22.868936856176969 ], [ 88.622008038725184, 22.869302501449766 ], [ 88.622390447011384, 22.86947535159976 ], [ 88.625471359053051, 22.869196132017372 ], [ 88.626272251878859, 22.869209428200982 ], [ 88.627087575206048, 22.86926261292238 ], [ 88.627332893729275, 22.869368982302721 ], [ 88.627397830985416, 22.869289205275273 ], [ 88.627159727712865, 22.869149595364515 ], [ 88.627044283701935, 22.868099192387479 ], [ 88.627015422699202, 22.866882576256508 ], [ 88.627065929453991, 22.865426611483954 ], [ 88.627044283701935, 22.864655409210439 ], [ 88.631138938464531, 22.864426042172472 ], [ 88.63097298769884, 22.862976699472291 ], [ 88.630873168997667, 22.862332861674997 ], [ 88.631359003610356, 22.862228752811305 ], [ 88.63195065416636, 22.862042596558069 ], [ 88.632015591422515, 22.861743416331112 ], [ 88.632001160921149, 22.861537314013805 ], [ 88.63194343891567, 22.861184944811772 ], [ 88.631907362662275, 22.860899059693498 ], [ 88.632080528678657, 22.860799332185163 ], [ 88.632560342849104, 22.860673010569556 ], [ 88.632921105383247, 22.861673607516718 ], [ 88.633115917151699, 22.862727384376072 ], [ 88.634800678186181, 22.86249468987355 ], [ 88.634865615442337, 22.862817137863416 ], [ 88.635154225469648, 22.862950105883836 ], [ 88.635356252488776, 22.862913539691192 ], [ 88.635525810879841, 22.863026562436655 ], [ 88.635666508268173, 22.863239310878985 ], [ 88.635915434416717, 22.863402196180001 ], [ 88.63629062745224, 22.863794449777078 ], [ 88.636716327242553, 22.863870905854817 ], [ 88.637210571914352, 22.864392800540656 ], [ 88.637362092178662, 22.864625491792669 ], [ 88.637596587825882, 22.864778402969872 ], [ 88.637928489357293, 22.864841561884148 ], [ 88.639703441025318, 22.864775078815672 ], [ 88.642373083777827, 22.864422718009681 ], [ 88.642712200559956, 22.864741837269257 ], [ 88.643866640669231, 22.865173976738557 ], [ 88.644176896448599, 22.865207218179268 ], [ 88.644364492966375, 22.865293645887053 ], [ 88.644754116503265, 22.86521386646643 ], [ 88.644862345263491, 22.865606114833412 ], [ 88.644761331753941, 22.866044899800308 ], [ 88.644653102993686, 22.866988947500445 ], [ 88.64453044373208, 22.868065951654394 ], [ 88.64452322848139, 22.868830486458297 ], [ 88.644263479456811, 22.869781162864825 ], [ 88.643989299930837, 22.870725184600865 ], [ 88.643946008426738, 22.871177249024544 ], [ 88.644256264206106, 22.871343448802051 ], [ 88.644826269010068, 22.871283616905572 ], [ 88.644948928271688, 22.871509648376197 ], [ 88.644902029142273, 22.871901878564891 ], [ 88.644667533495053, 22.872649771972132 ], [ 88.644389746343762, 22.873607069523985 ], [ 88.644368100591734, 22.874810329792425 ], [ 88.644519620856087, 22.875774259885265 ], [ 88.644526836106749, 22.875980340603558 ], [ 88.644966966398414, 22.876877785246386 ], [ 88.6451473476655, 22.877223466045042 ], [ 88.645558616954432, 22.877628975091035 ], [ 88.645645199962615, 22.878034482926033 ], [ 88.645767859224236, 22.878366865494201 ], [ 88.645986120557424, 22.878634432870459 ], [ 88.64632884496487, 22.879015009161865 ], [ 88.646660746496309, 22.879280913361267 ], [ 88.646797836259267, 22.879526874282082 ], [ 88.646869988766099, 22.880524008585478 ], [ 88.64703593953179, 22.881527783054139 ], [ 88.647187459796129, 22.882584729605298 ], [ 88.647461639322074, 22.883036754548904 ], [ 88.647887339112387, 22.883355830073469 ], [ 88.648060505128782, 22.883382419666663 ], [ 88.6483815837842, 22.883319269374315 ], [ 88.648612471806047, 22.882887187638591 ], [ 88.64867740906223, 22.882657851389393 ], [ 88.649088678351163, 22.88249831290058 ], [ 88.649218552863459, 22.882338774224273 ], [ 88.649896786427661, 22.882358716569065 ], [ 88.650243118460438, 22.882604671913956 ], [ 88.65055337423982, 22.882711030844007 ], [ 88.650474006482312, 22.882877216505381 ], [ 88.650870845269878, 22.883016812303715 ], [ 88.651505787329981, 22.883522014945477 ], [ 88.653172510237738, 22.883608430998525 ], [ 88.653583779526684, 22.883455541021082 ], [ 88.655257717685117, 22.883681552231202 ], [ 88.655611264968599, 22.883807852449426 ], [ 88.656404040637298, 22.883832780110243 ], [ 88.65698126069195, 22.883048387523957 ], [ 88.656937969187851, 22.88182525783699 ], [ 88.657139996206979, 22.881014263599219 ], [ 88.656447332141411, 22.87919283265294 ], [ 88.656533915149595, 22.878501480202861 ], [ 88.656144291612733, 22.877756942858312 ], [ 88.655826820582675, 22.874792048293557 ], [ 88.656331888130481, 22.87309019616308 ], [ 88.656779233672836, 22.872106303171901 ], [ 88.657010121694697, 22.871016035046104 ], [ 88.657327592724741, 22.870284752741188 ], [ 88.657443036735671, 22.869207766178182 ], [ 88.6576017722507, 22.868689214046917 ], [ 88.657774938267082, 22.868263733896715 ], [ 88.657847090773899, 22.866428835483926 ], [ 88.657572911247954, 22.865843790199779 ], [ 88.657241009716543, 22.865524673528391 ], [ 88.657154426708345, 22.86505929370573 ], [ 88.657226579215163, 22.864394462622506 ], [ 88.657493543490475, 22.863845974529927 ], [ 88.657461074862383, 22.863385575239938 ], [ 88.657116546642243, 22.862993320462532 ], [ 88.657066039887454, 22.862767274822282 ], [ 88.65719591439975, 22.862361721407563 ], [ 88.65718869914906, 22.861916276098224 ], [ 88.657414175732939, 22.861796603975236 ], [ 88.65758734174932, 22.86166363482609 ], [ 88.657572911247982, 22.861297968995061 ], [ 88.65727708596998, 22.860865817198921 ], [ 88.65716164195905, 22.860719550125879 ], [ 88.657132780956317, 22.860254153846114 ], [ 88.656923538686513, 22.860187668533186 ], [ 88.656894677683781, 22.859669081976069 ], [ 88.65747911298908, 22.859589299253184 ], [ 88.657334807975417, 22.858485633448058 ], [ 88.656974045441274, 22.857854013443081 ], [ 88.656591637155074, 22.856783577048091 ], [ 88.655733022323801, 22.856604062044632 ], [ 88.654607443217259, 22.856457790385033 ], [ 88.654109590920115, 22.856278274951315 ], [ 88.653460218358646, 22.85606551561175 ], [ 88.653467433609336, 22.855606752152624 ], [ 88.653250976088842, 22.85540064052924 ], [ 88.65328705234225, 22.85501501149129 ], [ 88.653222115086109, 22.854775654986462 ], [ 88.653611738622985, 22.85472911339491 ], [ 88.653806550391451, 22.854582839717732 ], [ 88.653727182633858, 22.854459836731003 ], [ 88.653676675879083, 22.854276994247762 ], [ 88.653391673477088, 22.854057582943238 ], [ 88.653139139703171, 22.853957850415021 ], [ 88.652778377169028, 22.853755060715351 ], [ 88.65226068293255, 22.853663639030504 ], [ 88.651827767891547, 22.853575541712399 ], [ 88.650900608178787, 22.85360546156269 ], [ 88.650135791606374, 22.853419293498344 ], [ 88.649190593766903, 22.853359453709235 ], [ 88.648562866957477, 22.853505728702782 ], [ 88.647754758880978, 22.853519026421662 ], [ 88.647733113128922, 22.853445888951718 ], [ 88.647567162363231, 22.853432591225687 ], [ 88.64743728785092, 22.853519026421662 ], [ 88.646910574551057, 22.853439240088864 ], [ 88.646571457768971, 22.853372751442429 ], [ 88.646650825526464, 22.853086849892211 ], [ 88.646650825526464, 22.852867436666827 ], [ 88.646745525691884, 22.852099487589275 ], [ 88.646961983212393, 22.851587519127698 ], [ 88.647106288226055, 22.851166972163465 ], [ 88.647122522540087, 22.851025681389473 ], [ 88.647223536049651, 22.850907661924541 ], [ 88.647219928424306, 22.850679933935051 ], [ 88.647117111102077, 22.850295953760533 ], [ 88.646969198463054, 22.849941893158146 ], [ 88.646723879939813, 22.84985545568798 ], [ 88.646029412061594, 22.849865429245035 ], [ 88.646173717075257, 22.84920052384005 ], [ 88.645228519235772, 22.848668597175081 ], [ 88.644961554960503, 22.8485356151837 ], [ 88.644730666938656, 22.848223106992059 ], [ 88.644759527941389, 22.847997036788701 ], [ 88.645069783720757, 22.847711123934456 ], [ 88.645076998971447, 22.846979716222609 ], [ 88.645174404855666, 22.846850057172279 ], [ 88.645463014882992, 22.846770266926026 ], [ 88.64543776150559, 22.846653906066305 ], [ 88.645336747996026, 22.84645110547282 ], [ 88.645322317494674, 22.846251629184199 ], [ 88.645610927522, 22.84620508467475 ], [ 88.645618142772676, 22.846128618660362 ], [ 88.645217696359765, 22.846108670997364 ], [ 88.644874971952319, 22.845969037274457 ], [ 88.644373512029844, 22.845277515771652 ], [ 88.643590657330762, 22.844585990752652 ], [ 88.643103627909653, 22.844366563809835 ], [ 88.642562484108439, 22.84414048719546 ], [ 88.641743553155905, 22.844396485686524 ], [ 88.64138820205973, 22.843974254151 ], [ 88.641615482456245, 22.84383129357029 ], [ 88.641514468946667, 22.843532073263795 ], [ 88.641366556307688, 22.843355865442003 ], [ 88.641521684197357, 22.843212904211303 ], [ 88.640875919261205, 22.842617784915333 ], [ 88.638978308331573, 22.840875633014051 ], [ 88.638682483053557, 22.840489962782812 ], [ 88.638595900045374, 22.840257230217713 ], [ 88.638011464740018, 22.8389805187775 ], [ 88.637867159726369, 22.838621441526122 ], [ 88.638841218568572, 22.837909933802539 ], [ 88.63881957281653, 22.837032180829919 ], [ 88.638624761048092, 22.836214269554059 ], [ 88.638408303527598, 22.834990718303811 ], [ 88.638401990183226, 22.834935857731878 ], [ 88.638081362481032, 22.834659060872475 ], [ 88.637165025644279, 22.834206875002099 ], [ 88.637143379892223, 22.834014030570895 ], [ 88.637323761159308, 22.833654940212131 ], [ 88.637323761159308, 22.833521943542479 ], [ 88.63751135767707, 22.833521943542479 ], [ 88.637533003429112, 22.833129602609702 ], [ 88.63738869841545, 22.833036504595192 ], [ 88.636609451341684, 22.833069753893398 ], [ 88.636479576829402, 22.832996605426612 ], [ 88.636450715826655, 22.832657462021423 ], [ 88.636494007330754, 22.832125470663456 ], [ 88.636385778570514, 22.83199912241033 ], [ 88.636118814295244, 22.831892723790393 ], [ 88.635974509281581, 22.831786325087275 ], [ 88.635472147452774, 22.831266798974937 ], [ 88.634332137844865, 22.830548602811422 ], [ 88.633011746969871, 22.82964420225133 ], [ 88.631799584855131, 22.828852846831403 ], [ 88.63251175264503, 22.827614214658411 ], [ 88.631805559984429, 22.827334909105314 ], [ 88.631194067489062, 22.827132910982112 ], [ 88.631391584976512, 22.826888517790355 ], [ 88.631813677141466, 22.826793752965287 ], [ 88.632030134661946, 22.826519433362932 ], [ 88.632311529438596, 22.826389754813022 ], [ 88.633263942528757, 22.826304964925139 ], [ 88.633307234032856, 22.826140372639063 ], [ 88.633426285669117, 22.825965804845453 ], [ 88.633393817041039, 22.825766298521504 ], [ 88.63313406801646, 22.825746347873022 ], [ 88.632998782066153, 22.825651582252831 ], [ 88.633047485008262, 22.825526890546801 ], [ 88.632771501669637, 22.825357309643323 ], [ 88.632544221273108, 22.825382248024727 ], [ 88.632349409504684, 22.825217654623007 ], [ 88.631683802629169, 22.824895948763224 ], [ 88.630828795423227, 22.824641576149837 ], [ 88.63069892091093, 22.824546809760594 ], [ 88.630747623853054, 22.824362264497477 ], [ 88.630747623853054, 22.823728823448107 ], [ 88.63098031568758, 22.823409607944175 ], [ 88.630931612745499, 22.822658949786277 ], [ 88.631077721571842, 22.82253425533926 ], [ 88.631052017241288, 22.822339731773891 ], [ 88.631214360381662, 22.822175134693804 ], [ 88.63101954861321, 22.821302268064827 ], [ 88.630992491423171, 22.820823435994456 ], [ 88.630932965605012, 22.820628909984869 ] ] ] } }
]
}
