{
"type": "FeatureCollection",
"name": "AKM_Wards",
"crs": { "type": "name", "properties": { "name": "urn:ogc:def:crs:OGC:1.3:CRS84" } },
"features": [
{ "type": "Feature", "properties": { "fid": 1, "ward_no": 10, "name": "Girrafe Park area", "remarks": null }, "geometry": { "type": "Polygon", "coordinates": [ [ [ 88.621590928775461, 22.842195398932891 ], [ 88.624675142811526, 22.848111807565793 ], [ 88.624926725225336, 22.84824919570978 ], [ 88.627209602684076, 22.8485067981056 ], [ 88.62980928762687, 22.84751931960481 ], [ 88.631458550117458, 22.846961176410666 ], [ 88.631402642914395, 22.845166515846341 ], [ 88.63179399333589, 22.84463412394706 ], [ 88.631728768265646, 22.844170426078676 ], [ 88.630741074344712, 22.844428036200732 ], [ 88.630414948993476, 22.844488145159001 ], [ 88.630070187907862, 22.843826945156923 ], [ 88.629846559095597, 22.843105632397762 ], [ 88.628351041413424, 22.842586113100303 ], [ 88.624945360959714, 22.841448315971707 ], [ 88.624805592952029, 22.841980720341191 ], [ 88.624134706515179, 22.841903435965239 ], [ 88.624134706515179, 22.841697344081346 ], [ 88.623640859554726, 22.841654408232902 ], [ 88.622960655250679, 22.841731692750347 ], [ 88.622075457868746, 22.842032243234097 ], [ 88.622075457868746, 22.842032243234097 ], [ 88.621590928775461, 22.842195398932891 ] ] ] } },
{ "type": "Feature", "properties": { "fid": 2, "ward_no": 8, "name": null, "remarks": null }, "geometry": { "type": "Polygon", "coordinates": [ [ [ 88.639229651344351, 22.850133975295268 ], [ 88.64265163806563, 22.848955454446543 ], [ 88.642784417672914, 22.848678532765057 ], [ 88.64279373554011, 22.847751163027436 ], [ 88.642775099805746, 22.84597368668619 ], [ 88.64244897445451, 22.845707492576956 ], [ 88.642150802704805, 22.845570101865103 ], [ 88.641684909345869, 22.845054885459511 ], [ 88.641219015986948, 22.844565428066328 ], [ 88.640753122628027, 22.84461694998015 ], [ 88.639672250035318, 22.845063472415593 ], [ 88.637920491005758, 22.845458471809525 ], [ 88.637314829639152, 22.845467058740127 ], [ 88.636755757608455, 22.845200863639256 ], [ 88.635311488195768, 22.845398363280104 ], [ 88.63437970147794, 22.84573325331997 ], [ 88.631458550117458, 22.846961176410666 ], [ 88.632236592026885, 22.849674589512581 ], [ 88.635507163406515, 22.84876440001343 ], [ 88.638386384364665, 22.847888551535785 ], [ 88.638992045731285, 22.849666002847666 ], [ 88.638992045731285, 22.849666002847666 ], [ 88.639229651344351, 22.850133975295268 ] ] ] } },
{ "type": "Feature", "properties": { "fid": 3, "ward_no": 1, "name": null, "remarks": null }, "geometry": { "type": "Polygon", "coordinates": [ [ [ 88.6483815837842, 22.883319269374315 ], [ 88.648612471806047, 22.882887187638591 ], [ 88.64867740906223, 22.882657851389393 ], [ 88.649088678351163, 22.88249831290058 ], [ 88.649218552863459, 22.882338774224273 ], [ 88.649896786427661, 22.882358716569065 ], [ 88.650243118460438, 22.882604671913956 ], [ 88.65055337423982, 22.882711030844007 ], [ 88.650474006482312, 22.882877216505381 ], [ 88.650870845269878, 22.883016812303715 ], [ 88.651505787329981, 22.883522014945477 ], [ 88.653172510237738, 22.883608430998525 ], [ 88.653583779526684, 22.883455541021082 ], [ 88.655257717685117, 22.883681552231202 ], [ 88.655611264968599, 22.883807852449426 ], [ 88.656404040637298, 22.883832780110243 ], [ 88.65698126069195, 22.883048387523957 ], [ 88.656937969187851, 22.88182525783699 ], [ 88.657139996206979, 22.881014263599219 ], [ 88.656447332141411, 22.87919283265294 ], [ 88.656533915149595, 22.878501480202861 ], [ 88.656144291612733, 22.877756942858312 ], [ 88.655826820582675, 22.874792048293557 ], [ 88.656331888130481, 22.87309019616308 ], [ 88.656779233672836, 22.872106303171901 ], [ 88.657010121694697, 22.871016035046104 ], [ 88.657327592724741, 22.870284752741188 ], [ 88.657443036735671, 22.869207766178182 ], [ 88.6576017722507, 22.868689214046917 ], [ 88.657774938267082, 22.868263733896715 ], [ 88.657847090773899, 22.866428835483926 ], [ 88.657572911247954, 22.865843790199779 ], [ 88.657241009716543, 22.865524673528391 ], [ 88.657154426708345, 22.86505929370573 ], [ 88.657226579215163, 22.864394462622506 ], [ 88.657493543490475, 22.863845974529927 ], [ 88.657461074862383, 22.863385575239938 ], [ 88.657116546642243, 22.862993320462532 ], [ 88.657066039887454, 22.862767274822282 ], [ 88.65719591439975, 22.862361721407563 ], [ 88.65718869914906, 22.861916276098224 ], [ 88.657414175732939, 22.861796603975236 ], [ 88.65758734174932, 22.86166363482609 ], [ 88.657572911247982, 22.861297968995061 ], [ 88.65727708596998, 22.860865817198921 ], [ 88.65716164195905, 22.860719550125879 ], [ 88.657132780956317, 22.860254153846114 ], [ 88.656923538686513, 22.860187668533186 ], [ 88.656894677683781, 22.859669081976069 ], [ 88.65747911298908, 22.859589299253184 ], [ 88.657334807975417, 22.858485633448058 ], [ 88.656974045441274, 22.857854013443081 ], [ 88.656591637155074, 22.856783577048091 ], [ 88.655733022323801, 22.856604062044632 ], [ 88.654607443217259, 22.856457790385033 ], [ 88.654109590920115, 22.856278274951315 ], [ 88.653460218358646, 22.85606551561175 ], [ 88.653467433609336, 22.855606752152624 ], [ 88.653250976088842, 22.85540064052924 ], [ 88.65328705234225, 22.85501501149129 ], [ 88.653222115086109, 22.854775654986462 ], [ 88.653611738622985, 22.85472911339491 ], [ 88.653806550391451, 22.854582839717732 ], [ 88.653727182633858, 22.854459836731003 ], [ 88.653676675879083, 22.854276994247762 ], [ 88.653391673477088, 22.854057582943238 ], [ 88.653139139703171, 22.853957850415021 ], [ 88.652778377169028, 22.853755060715351 ], [ 88.65226068293255, 22.853663639030504 ], [ 88.651827767891547, 22.853575541712399 ], [ 88.650900608178787, 22.85360546156269 ], [ 88.650135791606374, 22.853419293498344 ], [ 88.649190593766903, 22.853359453709235 ], [ 88.648562866957477, 22.853505728702782 ], [ 88.647754758880978, 22.853519026421662 ], [ 88.647733113128922, 22.853445888951718 ], [ 88.647567162363231, 22.853432591225687 ], [ 88.64743728785092, 22.853519026421662 ], [ 88.646910574551057, 22.853439240088864 ], [ 88.646571457768971, 22.853372751442429 ], [ 88.646650825526464, 22.853086849892211 ], [ 88.646650825526464, 22.852867436666827 ], [ 88.646463229008717, 22.85321982743222 ], [ 88.64623234098687, 22.853632056979638 ], [ 88.645875186078072, 22.854040960860285 ], [ 88.645611829428148, 22.854217154836196 ], [ 88.645492777791887, 22.854330184813698 ], [ 88.645447682475123, 22.854586164121223 ], [ 88.644695492591424, 22.854557906688864 ], [ 88.644450174068197, 22.854664287580118 ], [ 88.644037100966585, 22.855011687098258 ], [ 88.644010945682879, 22.855121392024792 ], [ 88.644112861098762, 22.855248549897055 ], [ 88.644158858321859, 22.855655786726668 ], [ 88.644249048955388, 22.855664928763947 ], [ 88.644297751897511, 22.855721443162548 ], [ 88.644299555710191, 22.855847769380336 ], [ 88.644200346013278, 22.857172525408888 ], [ 88.643660104118439, 22.857181667344136 ], [ 88.643385924592465, 22.857294694856613 ], [ 88.643290322520926, 22.857317965215159 ], [ 88.643176682322661, 22.857582249721958 ], [ 88.643156840383284, 22.857876452625078 ], [ 88.642316263678708, 22.858222181776451 ], [ 88.642388416185554, 22.858921117110288 ], [ 88.642519192604183, 22.859215317115275 ], [ 88.642559778389284, 22.859991536670488 ], [ 88.643145115600916, 22.860513446255695 ], [ 88.643592461143271, 22.861125108441463 ], [ 88.643541954388468, 22.861417641557111 ], [ 88.642178272009389, 22.86213567471659 ], [ 88.642005105992993, 22.862388315111129 ], [ 88.642041182246416, 22.862720735967262 ], [ 88.642264855017586, 22.863345684975251 ], [ 88.642365868527136, 22.863884202559611 ], [ 88.642373083777827, 22.864422718009681 ], [ 88.642712200559956, 22.864741837269257 ], [ 88.643866640669231, 22.865173976738557 ], [ 88.644176896448599, 22.865207218179268 ], [ 88.644364492966375, 22.865293645887053 ], [ 88.644754116503265, 22.86521386646643 ], [ 88.644862345263491, 22.865606114833412 ], [ 88.644761331753941, 22.866044899800308 ], [ 88.644653102993686, 22.866988947500445 ], [ 88.64453044373208, 22.868065951654394 ], [ 88.64452322848139, 22.868830486458297 ], [ 88.644263479456811, 22.869781162864825 ], [ 88.643989299930837, 22.870725184600865 ], [ 88.643946008426738, 22.871177249024544 ], [ 88.644256264206106, 22.871343448802051 ], [ 88.644826269010068, 22.871283616905572 ], [ 88.644948928271688, 22.871509648376197 ], [ 88.644902029142273, 22.871901878564891 ], [ 88.644667533495053, 22.872649771972132 ], [ 88.644389746343762, 22.873607069523985 ], [ 88.644368100591734, 22.874810329792425 ], [ 88.644519620856087, 22.875774259885265 ], [ 88.644526836106749, 22.875980340603558 ], [ 88.644966966398414, 22.876877785246386 ], [ 88.6451473476655, 22.877223466045042 ], [ 88.645558616954432, 22.877628975091035 ], [ 88.645645199962615, 22.878034482926033 ], [ 88.645767859224236, 22.878366865494201 ], [ 88.645986120557424, 22.878634432870459 ], [ 88.64632884496487, 22.879015009161865 ], [ 88.646660746496309, 22.879280913361267 ], [ 88.646797836259267, 22.879526874282082 ], [ 88.646869988766099, 22.880524008585478 ], [ 88.64703593953179, 22.881527783054139 ], [ 88.647187459796129, 22.882584729605298 ], [ 88.647461639322074, 22.883036754548904 ], [ 88.647887339112387, 22.883355830073469 ], [ 88.648060505128782, 22.883382419666663 ], [ 88.648060505128782, 22.883382419666663 ], [ 88.6483815837842, 22.883319269374315 ] ] ] } },
{ "type": "Feature", "properties": { "fid": 4, "ward_no": 7, "name": null, "remarks": null }, "geometry": { "type": "Polygon", "coordinates": [ [ [ 88.627209602684076, 22.8485067981056 ], [ 88.627397830985416, 22.848607093020245 ], [ 88.628278091568703, 22.85232388874233 ], [ 88.628646069353564, 22.853992756808179 ], [ 88.632268125196433, 22.853228138524106 ], [ 88.634562574913645, 22.852822556645233 ], [ 88.634908906946436, 22.8516257506054 ], [ 88.635413974494242, 22.851220163946216 ], [ 88.63634474183236, 22.851040641596025 ], [ 88.635507163406515, 22.84876440001343 ], [ 88.632236592026885, 22.849674589512581 ], [ 88.631458550117458, 22.846961176410666 ], [ 88.627209602684076, 22.8485067981056 ] ] ] } },
{ "type": "Feature", "properties": { "fid": 5, "ward_no": 3, "name": null, "remarks": null }, "geometry": { "type": "Polygon", "coordinates": [ [ [ 88.63634474183236, 22.851040641596025 ], [ 88.637430637060092, 22.854245412339335 ], [ 88.637529846757005, 22.854737424394518 ], [ 88.638116085874984, 22.854660963178485 ], [ 88.638229726073249, 22.854551257880367 ], [ 88.63954470551019, 22.854381713154577 ], [ 88.640064203559376, 22.854341820247193 ], [ 88.640699145619493, 22.854178924087194 ], [ 88.640778513377001, 22.853633719192974 ], [ 88.640886742137226, 22.853474146615181 ], [ 88.640800159129043, 22.852669632016134 ], [ 88.640922818390663, 22.852224154942256 ], [ 88.641218643668651, 22.851173621137452 ], [ 88.641355733431638, 22.850847821029948 ], [ 88.642560680295688, 22.850355794898025 ], [ 88.643534739137905, 22.849990098646508 ], [ 88.64396765417888, 22.849990098646508 ], [ 88.644039806685697, 22.849943555416672 ], [ 88.644162465947304, 22.849617752361691 ], [ 88.644602596238983, 22.849704189982976 ], [ 88.644826269010153, 22.850415636009185 ], [ 88.645107663786803, 22.850495424116403 ], [ 88.645596497020577, 22.850761384135694 ], [ 88.645863461295846, 22.850134715008991 ], [ 88.646029412061594, 22.849865429245035 ], [ 88.646173717075257, 22.84920052384005 ], [ 88.645228519235772, 22.848668597175081 ], [ 88.644961554960503, 22.8485356151837 ], [ 88.644730666938656, 22.848223106992059 ], [ 88.644759527941389, 22.847997036788701 ], [ 88.645069783720757, 22.847711123934456 ], [ 88.645076998971447, 22.846979716222609 ], [ 88.645174404855666, 22.846850057172279 ], [ 88.645463014882992, 22.846770266926026 ], [ 88.64543776150559, 22.846653906066305 ], [ 88.645336747996026, 22.84645110547282 ], [ 88.645322317494674, 22.846251629184199 ], [ 88.645610927522, 22.84620508467475 ], [ 88.645618142772676, 22.846128618660362 ], [ 88.645217696359765, 22.846108670997364 ], [ 88.644874971952319, 22.845969037274457 ], [ 88.644373512029844, 22.845277515771652 ], [ 88.643590657330762, 22.844585990752652 ], [ 88.643103627909653, 22.844366563809835 ], [ 88.642562484108439, 22.84414048719546 ], [ 88.641743553155905, 22.844396485686524 ], [ 88.641219015986948, 22.844565428066328 ], [ 88.641684909345869, 22.845054885459511 ], [ 88.642150802704805, 22.845570101865103 ], [ 88.64244897445451, 22.845707492576956 ], [ 88.642775099805746, 22.84597368668619 ], [ 88.64279373554011, 22.847751163027436 ], [ 88.642784417672914, 22.848678532765057 ], [ 88.64265163806563, 22.848955454446543 ], [ 88.639229651344351, 22.850133975295268 ], [ 88.638992045731285, 22.849666002847666 ], [ 88.638386384364665, 22.847888551535785 ], [ 88.635507163406515, 22.84876440001343 ], [ 88.63634474183236, 22.851040641596025 ] ] ] } },
{ "type": "Feature", "properties": { "fid": 6, "ward_no": 2, "name": null, "remarks": null }, "geometry": { "type": "Polygon", "coordinates": [ [ [ 88.646650825526464, 22.852867436666827 ], [ 88.646745525691884, 22.852099487589275 ], [ 88.646961983212393, 22.851587519127698 ], [ 88.647106288226055, 22.851166972163465 ], [ 88.647122522540087, 22.851025681389473 ], [ 88.647223536049651, 22.850907661924541 ], [ 88.647219928424306, 22.850679933935051 ], [ 88.647117111102077, 22.850295953760533 ], [ 88.646969198463054, 22.849941893158146 ], [ 88.646723879939813, 22.84985545568798 ], [ 88.646029412061594, 22.849865429245035 ], [ 88.645596497020577, 22.850761384135694 ], [ 88.645107663786803, 22.850495424116403 ], [ 88.644826269010153, 22.850415636009185 ], [ 88.644602596238983, 22.849704189982976 ], [ 88.644162465947304, 22.849617752361691 ], [ 88.644039806685697, 22.849943555416672 ], [ 88.64396765417888, 22.849990098646508 ], [ 88.643534739137905, 22.849990098646508 ], [ 88.642560680295688, 22.850355794898025 ], [ 88.641355733431638, 22.850847821029948 ], [ 88.641218643668651, 22.851173621137452 ], [ 88.640922818390663, 22.852224154942256 ], [ 88.640800159129043, 22.852669632016134 ], [ 88.640886742137226, 22.853474146615181 ], [ 88.640778513377001, 22.853633719192974 ], [ 88.640699145619493, 22.854178924087194 ], [ 88.640064203559376, 22.854341820247193 ], [ 88.63954470551019, 22.854381713154577 ], [ 88.638229726073249, 22.854551257880367 ], [ 88.638116085874984, 22.854660963178485 ], [ 88.637529846757005, 22.854737424394518 ], [ 88.637430637060092, 22.854245412339335 ], [ 88.636505281160026, 22.854404984011794 ], [ 88.636198633005975, 22.854399997399867 ], [ 88.635819832345121, 22.854267021014266 ], [ 88.635599767199295, 22.854220479248578 ], [ 88.635188497910349, 22.85417061305337 ], [ 88.634972040389883, 22.854104124764635 ], [ 88.635177675034328, 22.854260372191568 ], [ 88.635697173083514, 22.854762357390431 ], [ 88.635729641711592, 22.854895333291491 ], [ 88.636050720366967, 22.854832169754708 ], [ 88.636191417755285, 22.855420586828963 ], [ 88.636321292267596, 22.855975757665433 ], [ 88.635783756091712, 22.856148624768338 ], [ 88.636029074614925, 22.857106038588423 ], [ 88.634950394637826, 22.857368661339596 ], [ 88.634842165877572, 22.857092741220438 ], [ 88.632188757438911, 22.857745972885024 ], [ 88.632324043389218, 22.85814655359971 ], [ 88.631838817780775, 22.858292823441932 ], [ 88.632167111686854, 22.859403139384241 ], [ 88.632560342849104, 22.860673010569556 ], [ 88.632921105383247, 22.861673607516718 ], [ 88.633115917151699, 22.862727384376072 ], [ 88.634800678186181, 22.86249468987355 ], [ 88.634865615442337, 22.862817137863416 ], [ 88.635154225469648, 22.862950105883836 ], [ 88.635356252488776, 22.862913539691192 ], [ 88.635525810879841, 22.863026562436655 ], [ 88.635666508268173, 22.863239310878985 ], [ 88.635915434416717, 22.863402196180001 ], [ 88.63629062745224, 22.863794449777078 ], [ 88.636716327242553, 22.863870905854817 ], [ 88.637210571914352, 22.864392800540656 ], [ 88.637362092178662, 22.864625491792669 ], [ 88.637596587825882, 22.864778402969872 ], [ 88.637928489357293, 22.864841561884148 ], [ 88.639703441025318, 22.864775078815672 ], [ 88.642373083777827, 22.864422718009681 ], [ 88.642365868527136, 22.863884202559611 ], [ 88.642264855017586, 22.863345684975251 ], [ 88.642041182246416, 22.862720735967262 ], [ 88.642005105992993, 22.862388315111129 ], [ 88.642178272009389, 22.86213567471659 ], [ 88.643541954388468, 22.861417641557111 ], [ 88.643592461143271, 22.861125108441463 ], [ 88.643145115600916, 22.860513446255695 ], [ 88.642559778389284, 22.859991536670488 ], [ 88.642519192604183, 22.859215317115275 ], [ 88.642388416185554, 22.858921117110288 ], [ 88.642316263678708, 22.858222181776451 ], [ 88.643156840383284, 22.857876452625078 ], [ 88.643176682322661, 22.857582249721958 ], [ 88.643290322520926, 22.857317965215159 ], [ 88.643660104118439, 22.857181667344136 ], [ 88.644200346013278, 22.857172525408888 ], [ 88.644299555710191, 22.855847769380336 ], [ 88.644297751897511, 22.855721443162548 ], [ 88.644249048955388, 22.855664928763947 ], [ 88.644158858321859, 22.855655786726668 ], [ 88.644112861098762, 22.855248549897055 ], [ 88.644010945682879, 22.855121392024792 ], [ 88.644037100966585, 22.855011687098258 ], [ 88.644450174068197, 22.854664287580118 ], [ 88.644695492591424, 22.854557906688864 ], [ 88.645447682475123, 22.854586164121223 ], [ 88.645492777791887, 22.854330184813698 ], [ 88.645611829428148, 22.854217154836196 ], [ 88.645875186078072, 22.854040960860285 ], [ 88.64623234098687, 22.853632056979638 ], [ 88.646463229008717, 22.85321982743222 ], [ 88.646650825526464, 22.852867436666827 ] ] ] } },
{ "type": "Feature", "properties": { "fid": 7, "ward_no": 4, "name": null, "remarks": null }, "geometry": { "type": "Polygon", "coordinates": [ [ [ 88.628646069353564, 22.853992756808179 ], [ 88.629742787457303, 22.858419147269895 ], [ 88.626423772143113, 22.859323356505222 ], [ 88.626611368660875, 22.860919005186386 ], [ 88.625933135096659, 22.861051975064136 ], [ 88.626405734016444, 22.862966726877232 ], [ 88.626726812671848, 22.863611619851536 ], [ 88.627679225762009, 22.863112991531526 ], [ 88.629728356955951, 22.862601064552717 ], [ 88.630738492051591, 22.862361721407492 ], [ 88.631359003610356, 22.862228752811305 ], [ 88.63195065416636, 22.862042596558069 ], [ 88.632015591422515, 22.861743416331112 ], [ 88.632001160921149, 22.861537314013805 ], [ 88.63194343891567, 22.861184944811772 ], [ 88.631907362662275, 22.860899059693498 ], [ 88.632080528678657, 22.860799332185163 ], [ 88.632560342849104, 22.860673010569556 ], [ 88.631838817780775, 22.858292823441932 ], [ 88.632324043389218, 22.85814655359971 ], [ 88.632188757438911, 22.857745972885024 ], [ 88.634842165877572, 22.857092741220438 ], [ 88.634950394637826, 22.857368661339596 ], [ 88.636029074614925, 22.857106038588423 ], [ 88.635783756091712, 22.856148624768338 ], [ 88.636321292267596, 22.855975757665433 ], [ 88.636050720366967, 22.854832169754708 ], [ 88.635729641711592, 22.854895333291491 ], [ 88.635697173083514, 22.854762357390431 ], [ 88.635177675034328, 22.854260372191568 ], [ 88.634972040389883, 22.854104124764635 ], [ 88.635188497910349, 22.85417061305337 ], [ 88.635599767199295, 22.854220479248578 ], [ 88.636198633005975, 22.854399997399867 ], [ 88.636505281160026, 22.854404984011794 ], [ 88.637430637060092, 22.854245412339335 ], [ 88.63634474183236, 22.851040641596025 ], [ 88.635413974494242, 22.851220163946216 ], [ 88.634908906946436, 22.8516257506054 ], [ 88.634562574913645, 22.852822556645233 ], [ 88.632268125196433, 22.853228138524106 ], [ 88.628646069353564, 22.853992756808179 ] ] ] } },
{ "type": "Feature", "properties": { "fid": 8, "ward_no": 5, "name": null, "remarks": null }, "geometry": { "type": "Polygon", "coordinates": [ [ [ 88.630738492051591, 22.862361721407492 ], [ 88.630871974189262, 22.862325155056499 ], [ 88.63097298769884, 22.862976699472291 ], [ 88.631138938464531, 22.864426042172472 ], [ 88.627044283701935, 22.864655409210439 ], [ 88.627065929453991, 22.865426611483954 ], [ 88.627015422699202, 22.866882576256508 ], [ 88.627044283701935, 22.868099192387479 ], [ 88.627159727712865, 22.869149595364515 ], [ 88.627397830985416, 22.869289205275273 ], [ 88.627332893729275, 22.869368982302721 ], [ 88.627087575206048, 22.86926261292238 ], [ 88.626272251878859, 22.869209428200982 ], [ 88.625471359053051, 22.869196132017372 ], [ 88.622390447011384, 22.86947535159976 ], [ 88.622008038725184, 22.869302501449766 ], [ 88.621784365954028, 22.868936856176969 ], [ 88.621726643948548, 22.868431599271315 ], [ 88.621719428697872, 22.867667062222516 ], [ 88.621618415188308, 22.867048781288531 ], [ 88.621625630439013, 22.865180625027325 ], [ 88.62158955418559, 22.864455959634167 ], [ 88.621676137193788, 22.863731290376059 ], [ 88.621784365954028, 22.863332388217746 ], [ 88.621748289700619, 22.862813813661223 ], [ 88.621777150703338, 22.862434854079911 ], [ 88.621820442207451, 22.861384399189294 ], [ 88.621488540676012, 22.860041400730172 ], [ 88.621142208643235, 22.859908429863626 ], [ 88.620979865502875, 22.859788755972495 ], [ 88.620777838483747, 22.859765486036981 ], [ 88.619969730407249, 22.859828647281244 ], [ 88.61965225937719, 22.859679054813054 ], [ 88.618883835179446, 22.858518876524826 ], [ 88.618418451510351, 22.857671175525336 ], [ 88.618476173515816, 22.857139282002699 ], [ 88.618447312513084, 22.8566206838141 ], [ 88.618378767631583, 22.856451141669432 ], [ 88.61811901860699, 22.856298221122259 ], [ 88.618851366551354, 22.854632705761652 ], [ 88.619204913834807, 22.853562243998976 ], [ 88.619334788347118, 22.852657996439461 ], [ 88.619230167212166, 22.851650684172007 ], [ 88.619417763729942, 22.851444566550597 ], [ 88.619589148779013, 22.851317600050148 ], [ 88.619601752622373, 22.85130826279061 ], [ 88.619659474627824, 22.850935920115599 ], [ 88.619695550881247, 22.850330861093919 ], [ 88.619771311013423, 22.850104794394884 ], [ 88.620088782043482, 22.850011707997787 ], [ 88.620590241965957, 22.849868753763889 ], [ 88.620918535872022, 22.849679256059382 ], [ 88.621239614527425, 22.849509705257798 ], [ 88.621715821072485, 22.849409969393403 ], [ 88.622166774240227, 22.849120734972953 ], [ 88.622210065744312, 22.849027647902169 ], [ 88.623844320023991, 22.848542264286362 ], [ 88.623685584508962, 22.848941209850818 ], [ 88.62377216751716, 22.849532976948968 ], [ 88.623824478084629, 22.850317563063214 ], [ 88.623773971329868, 22.850571887675223 ], [ 88.62384432002402, 22.850817900572761 ], [ 88.624031916541753, 22.851191905814218 ], [ 88.624030112729073, 22.851554274355735 ], [ 88.624091442359898, 22.851875086065828 ], [ 88.624185240618786, 22.852164314627093 ], [ 88.62439448288859, 22.853314573850064 ], [ 88.624564041279626, 22.853540635212021 ], [ 88.624625370910437, 22.853693558861352 ], [ 88.624423343891323, 22.853893024232402 ], [ 88.624282646503005, 22.854032649817995 ], [ 88.624250177874913, 22.854245412339331 ], [ 88.624224924497511, 22.855196190787549 ], [ 88.62409865761056, 22.856007339171803 ], [ 88.624004859351686, 22.85664894081766 ], [ 88.624080619483848, 22.857051186937102 ], [ 88.624325938007104, 22.857769243166302 ], [ 88.62472277679467, 22.858208053438911 ], [ 88.624791321676142, 22.858487295602028 ], [ 88.625152084210271, 22.859936686183662 ], [ 88.62525670534518, 22.860229221857509 ], [ 88.625808672022444, 22.860990476511851 ], [ 88.625933135096659, 22.861051975064136 ], [ 88.626405734016444, 22.862966726877232 ], [ 88.626726812671848, 22.863611619851536 ], [ 88.627679225762009, 22.863112991531526 ], [ 88.629728356955951, 22.862601064552717 ], [ 88.630738492051591, 22.862361721407492 ] ] ] } },
{ "type": "Feature", "properties": { "fid": 9, "ward_no": 6, "name": null, "remarks": null }, "geometry": { "type": "Polygon", "coordinates": [ [ [ 88.618418451510351, 22.857671175525336 ], [ 88.617893542023126, 22.858227999326729 ], [ 88.617677084502631, 22.858493944217965 ], [ 88.616602012150864, 22.859211992824971 ], [ 88.616421630883792, 22.859378207239583 ], [ 88.61600314634417, 22.859916740546605 ], [ 88.615664029562055, 22.860176033600005 ], [ 88.615057948504699, 22.860229221857505 ], [ 88.614798199480106, 22.859836957969108 ], [ 88.614711616471894, 22.859517827190754 ], [ 88.614783768978739, 22.859072372559606 ], [ 88.615036302752642, 22.85838756632392 ], [ 88.615303267027926, 22.858021891678103 ], [ 88.615570231303195, 22.857509945521127 ], [ 88.615757827820957, 22.856978051367555 ], [ 88.615851626079831, 22.856306532025979 ], [ 88.615238329771756, 22.856226747329256 ], [ 88.615014657000586, 22.85615361131612 ], [ 88.614949719744459, 22.855881013102302 ], [ 88.615036302752657, 22.855468790374715 ], [ 88.614964150245825, 22.855335815034632 ], [ 88.614790984229444, 22.855202839564466 ], [ 88.614444652196639, 22.855189542010294 ], [ 88.614394145441878, 22.855036620043837 ], [ 88.614538450455541, 22.854750721992897 ], [ 88.614726046973288, 22.854424930457682 ], [ 88.615166177264953, 22.85407919164798 ], [ 88.615606307556604, 22.853826535807887 ], [ 88.615252760273123, 22.852137718922993 ], [ 88.614899212989627, 22.850375741937977 ], [ 88.614899212989627, 22.849351790105374 ], [ 88.61553415504973, 22.848500707389405 ], [ 88.615837195578422, 22.847330459957135 ], [ 88.616674164657653, 22.847596426166987 ], [ 88.617222523709572, 22.847583127868845 ], [ 88.617583286243715, 22.847260643740857 ], [ 88.617691515003983, 22.847267292905862 ], [ 88.617828604766956, 22.847260643740857 ], [ 88.617879111521745, 22.847168386542943 ], [ 88.617807860921246, 22.847056181758422 ], [ 88.617916089681486, 22.846970573601297 ], [ 88.618269636964982, 22.846794370234498 ], [ 88.618482486860131, 22.846737852125091 ], [ 88.618648437625836, 22.84667468479854 ], [ 88.618875718022352, 22.846678009395408 ], [ 88.61917154330034, 22.84685753750545 ], [ 88.61934831694208, 22.84705036373003 ], [ 88.619409646572905, 22.847126829226134 ], [ 88.619490818143092, 22.847204956971225 ], [ 88.619670297503831, 22.847087765336759 ], [ 88.619908400776382, 22.846903250643745 ], [ 88.620314258627303, 22.846758630844501 ], [ 88.620859010053863, 22.846780240709332 ], [ 88.62103939132092, 22.846879978502521 ], [ 88.621367685227, 22.846919873599322 ], [ 88.624675142811526, 22.848111807565793 ], [ 88.624926725225336, 22.84824919570978 ], [ 88.627209602684076, 22.8485067981056 ], [ 88.627397830985416, 22.848607093020245 ], [ 88.628278091568703, 22.85232388874233 ], [ 88.628646069353564, 22.853992756808179 ], [ 88.629742787457303, 22.858419147269895 ], [ 88.626423772143113, 22.859323356505222 ], [ 88.626611368660875, 22.860919005186386 ], [ 88.625933135096659, 22.861051975064136 ], [ 88.625808672022444, 22.860990476511851 ], [ 88.62525670534518, 22.860229221857509 ], [ 88.625152084210271, 22.859936686183662 ], [ 88.624791321676142, 22.858487295602028 ], [ 88.62472277679467, 22.858208053438911 ], [ 88.624325938007104, 22.857769243166302 ], [ 88.624080619483848, 22.857051186937102 ], [ 88.624004859351686, 22.85664894081766 ], [ 88.62409865761056, 22.856007339171803 ], [ 88.624224924497511, 22.855196190787549 ], [ 88.624250177874913, 22.854245412339331 ], [ 88.624282646503005, 22.854032649817995 ], [ 88.624423343891323, 22.853893024232402 ], [ 88.624625370910437, 22.853693558861352 ], [ 88.624564041279626, 22.853540635212021 ], [ 88.62439448288859, 22.853314573850064 ], [ 88.624185240618786, 22.852164314627093 ], [ 88.624030112729073, 22.851554274355735 ], [ 88.624031916541753, 22.851191905814218 ], [ 88.62384432002402, 22.850817900572761 ], [ 88.623773971329868, 22.850571887675223 ], [ 88.623824478084629, 22.850317563063214 ], [ 88.62377216751716, 22.849532976948968 ], [ 88.623685584508962, 22.848941209850818 ], [ 88.623844320023991, 22.848542264286362 ], [ 88.622210065744312, 22.849027647902169 ], [ 88.621715821072485, 22.849409969393403 ], [ 88.621239614527425, 22.849509705257798 ], [ 88.620918535872022, 22.849679256059382 ], [ 88.620590241965957, 22.849868753763889 ], [ 88.620088782043482, 22.850011707997787 ], [ 88.619771311013423, 22.850104794394884 ], [ 88.619695550881247, 22.850330861093919 ], [ 88.619659474627824, 22.850935920115599 ], [ 88.619589148779013, 22.851317600050148 ], [ 88.619417763729942, 22.851444566550597 ], [ 88.619230167212166, 22.851650684172007 ], [ 88.619334788347118, 22.852657996439461 ], [ 88.619204913834807, 22.853562243998976 ], [ 88.618851366551354, 22.854632705761652 ], [ 88.61811901860699, 22.856298221122259 ], [ 88.618378767631583, 22.856451141669432 ], [ 88.618447312513084, 22.8566206838141 ], [ 88.618476173515816, 22.857139282002699 ], [ 88.618418451510351, 22.857671175525336 ] ] ] } },
{ "type": "Feature", "properties": { "fid": 10, "ward_no": 11, "name": null, "remarks": null }, "geometry": { "type": "Polygon", "coordinates": [ [ [ 88.631728768265646, 22.844170426078676 ], [ 88.63141852942843, 22.843429008339143 ], [ 88.631562834442093, 22.843036695976028 ], [ 88.632002964733772, 22.842631083699001 ], [ 88.632118408744702, 22.842212171389086 ], [ 88.632116604932023, 22.84157382634077 ], [ 88.631530365813987, 22.839088574246336 ], [ 88.631241755786661, 22.838024639738546 ], [ 88.629928580162343, 22.836215931980345 ], [ 88.629856427655511, 22.835870146877024 ], [ 88.629434335490586, 22.835614132340133 ], [ 88.628997812824281, 22.834842760953144 ], [ 88.628795785805139, 22.834344027125283 ], [ 88.628608189287391, 22.834051435762163 ], [ 88.628521606279207, 22.833253456119614 ], [ 88.626999188385085, 22.83316035818984 ], [ 88.627020834137141, 22.833672396015423 ], [ 88.627215645905579, 22.833938388930644 ], [ 88.627561977938356, 22.834437124245248 ], [ 88.627504255932905, 22.83468981610693 ], [ 88.625527277245737, 22.837037168078727 ], [ 88.624978918193833, 22.837529242394318 ], [ 88.624372837136463, 22.837582439511021 ], [ 88.624044543230369, 22.837668884781301 ], [ 88.623763148453747, 22.837865048844744 ], [ 88.623532260431858, 22.83811440953404 ], [ 88.623391563043555, 22.838520035278876 ], [ 88.622918964123798, 22.838510060889817 ], [ 88.622334528818485, 22.838466838528792 ], [ 88.621999019661715, 22.838466838528792 ], [ 88.619675708941799, 22.838387043364648 ], [ 88.620166345988238, 22.839381154777289 ], [ 88.62058122290253, 22.840155825189814 ], [ 88.621590928775461, 22.842195398932891 ], [ 88.622075457868746, 22.842032243234097 ], [ 88.622960655250679, 22.841731692750347 ], [ 88.623640859554726, 22.841654408232902 ], [ 88.624134706515179, 22.841697344081346 ], [ 88.624134706515179, 22.841903435965239 ], [ 88.624805592952029, 22.841980720341191 ], [ 88.624945360959714, 22.841448315971707 ], [ 88.628351041413424, 22.842586113100303 ], [ 88.629846559095597, 22.843105632397762 ], [ 88.630070187907862, 22.843826945156923 ], [ 88.630414948993476, 22.844488145159001 ], [ 88.631728768265646, 22.844170426078676 ] ] ] } },
{ "type": "Feature", "properties": { "fid": 11, "ward_no": 9, "name": null, "remarks": null }, "geometry": { "type": "Polygon", "coordinates": [ [ [ 88.641743553155905, 22.844396485686524 ], [ 88.64138820205973, 22.843974254151 ], [ 88.641615482456245, 22.84383129357029 ], [ 88.641514468946667, 22.843532073263795 ], [ 88.641366556307688, 22.843355865442003 ], [ 88.641521684197357, 22.843212904211303 ], [ 88.640875919261205, 22.842617784915333 ], [ 88.638978308331573, 22.840875633014051 ], [ 88.638682483053557, 22.840489962782812 ], [ 88.638595900045374, 22.840257230217713 ], [ 88.638011464740018, 22.8389805187775 ], [ 88.637867159726369, 22.838621441526122 ], [ 88.638841218568572, 22.837909933802539 ], [ 88.63881957281653, 22.837032180829919 ], [ 88.638624761048092, 22.836214269554059 ], [ 88.638408303527598, 22.834990718303811 ], [ 88.638401990183226, 22.834935857731878 ], [ 88.638276625202622, 22.834933364068991 ], [ 88.638169298348714, 22.834884322022948 ], [ 88.63791676457484, 22.834866035153787 ], [ 88.63763536979819, 22.834952482149948 ], [ 88.637534356288626, 22.834975756331829 ], [ 88.63723853101061, 22.835218472562875 ], [ 88.637043719242186, 22.835427939647083 ], [ 88.636960743859319, 22.835567584190738 ], [ 88.636747893964156, 22.835750451828805 ], [ 88.636415992432759, 22.835959918094062 ], [ 88.635726935992508, 22.83650186899812 ], [ 88.635330097204957, 22.836867601517113 ], [ 88.635160538813892, 22.836894200207414 ], [ 88.634900789789313, 22.837136913016227 ], [ 88.634352430737394, 22.837499319007016 ], [ 88.63425863247852, 22.837612362880009 ], [ 88.634092681712801, 22.83769215849852 ], [ 88.63381489456151, 22.837894972151577 ], [ 88.633616475167756, 22.837838450344208 ], [ 88.633392802396571, 22.837695483314928 ], [ 88.6331005847439, 22.837422848098473 ], [ 88.632851658595342, 22.837077066062474 ], [ 88.632725391708391, 22.836877576026573 ], [ 88.632523364689291, 22.836671436015511 ], [ 88.632249185163332, 22.836581665267914 ], [ 88.631877599753167, 22.836611588857025 ], [ 88.631405000833425, 22.836890875371395 ], [ 88.631426646585467, 22.837289855111706 ], [ 88.630861151313184, 22.837501397020219 ], [ 88.631241755786661, 22.838024639738546 ], [ 88.631530365813987, 22.839088574246336 ], [ 88.632116604932023, 22.84157382634077 ], [ 88.632118408744702, 22.842212171389086 ], [ 88.632002964733772, 22.842631083699001 ], [ 88.631562834442093, 22.843036695976028 ], [ 88.63141852942843, 22.843429008339143 ], [ 88.631728768265646, 22.844170426078676 ], [ 88.63179399333589, 22.84463412394706 ], [ 88.631402642914395, 22.845166515846341 ], [ 88.631458550117458, 22.846961176410666 ], [ 88.63437970147794, 22.84573325331997 ], [ 88.635311488195768, 22.845398363280104 ], [ 88.636755757608455, 22.845200863639256 ], [ 88.637314829639152, 22.845467058740127 ], [ 88.637920491005758, 22.845458471809525 ], [ 88.639672250035318, 22.845063472415593 ], [ 88.640753122628027, 22.84461694998015 ], [ 88.641219015986948, 22.844565428066328 ], [ 88.641743553155905, 22.844396485686524 ] ] ] } },
{ "type": "Feature", "properties": { "fid": 12, "ward_no": 12, "name": null, "remarks": null }, "geometry": { "type": "Polygon", "coordinates": [ [ [ 88.619675708941799, 22.838387043364648 ], [ 88.618146526750209, 22.835450382529835 ], [ 88.617583737196924, 22.836294897205178 ], [ 88.617194113660048, 22.836554235305464 ], [ 88.616934364635455, 22.837079559686085 ], [ 88.616898288382032, 22.838037107769225 ], [ 88.617461077935303, 22.839320477616614 ], [ 88.618514504535042, 22.841341926811847 ], [ 88.618703904865512, 22.841614554174189 ], [ 88.616869427379299, 22.84243575768328 ], [ 88.617215759412105, 22.843074098686557 ], [ 88.61764506682772, 22.842887916203392 ], [ 88.618485643532296, 22.844526978238406 ], [ 88.617385317803155, 22.844989103721165 ], [ 88.617598167698304, 22.845308268605461 ], [ 88.617587344822269, 22.84540135822229 ], [ 88.617453862684627, 22.845411332106032 ], [ 88.617204936536069, 22.845148686256938 ], [ 88.617096707775829, 22.844982454444782 ], [ 88.616966833263533, 22.844975805168069 ], [ 88.61689828838206, 22.845168634060748 ], [ 88.616851389252602, 22.845331541015646 ], [ 88.616468980966403, 22.845550966401561 ], [ 88.616187586189781, 22.846016413017903 ], [ 88.616086572680217, 22.84631562785864 ], [ 88.616187586189781, 22.84700714408276 ], [ 88.616598855478728, 22.847199970095204 ], [ 88.616923541759462, 22.847126829226116 ], [ 88.617399748304535, 22.847126829226116 ], [ 88.617583286243715, 22.847260643740857 ], [ 88.617691515003983, 22.847267292905862 ], [ 88.617828604766956, 22.847260643740857 ], [ 88.617879111521745, 22.847168386542943 ], [ 88.617807860921246, 22.847056181758422 ], [ 88.617916089681486, 22.846970573601297 ], [ 88.618269636964982, 22.846794370234498 ], [ 88.618482486860131, 22.846737852125091 ], [ 88.618648437625836, 22.84667468479854 ], [ 88.618875718022352, 22.846678009395408 ], [ 88.61917154330034, 22.84685753750545 ], [ 88.619409646572905, 22.847126829226134 ], [ 88.619490818143092, 22.847204956971225 ], [ 88.619670297503831, 22.847087765336759 ], [ 88.619908400776382, 22.846903250643745 ], [ 88.620314258627303, 22.846758630844501 ], [ 88.620859010053863, 22.846780240709332 ], [ 88.62103939132092, 22.846879978502521 ], [ 88.621367685227, 22.846919873599322 ], [ 88.624675142811526, 22.848111807565793 ], [ 88.621590928775461, 22.842195398932891 ], [ 88.62058122290253, 22.840155825189814 ], [ 88.620166345988238, 22.839381154777289 ], [ 88.619675708941799, 22.838387043364648 ] ] ] } },
{ "type": "Feature", "properties": { "fid": 13, "ward_no": 13, "name": null, "remarks": null }, "geometry": { "type": "Polygon", "coordinates": [ [ [ 88.61689828838206, 22.845168634060748 ], [ 88.615782630245221, 22.845166971743865 ], [ 88.615190979689189, 22.845346501848642 ], [ 88.61355311778415, 22.845053934148901 ], [ 88.612283233663931, 22.844521991264187 ], [ 88.611756520364096, 22.844242720416844 ], [ 88.610125873709734, 22.843724073036121 ], [ 88.60852408805809, 22.84324531985235 ], [ 88.608069527265073, 22.843032540118642 ], [ 88.607932437502086, 22.842101624869908 ], [ 88.607780917237733, 22.841802400758326 ], [ 88.607434585204956, 22.84129704298639 ], [ 88.605948243564256, 22.84131699135509 ], [ 88.604779372953601, 22.84101111604695 ], [ 88.603559995588171, 22.840519054325441 ], [ 88.602636443500742, 22.8401466821098 ], [ 88.601878842179019, 22.839820855584957 ], [ 88.600991366344999, 22.839255644456124 ], [ 88.600544020802616, 22.838404498560784 ], [ 88.601503649143467, 22.838497592902453 ], [ 88.602023147192625, 22.838504242495837 ], [ 88.606395589106555, 22.838863320056557 ], [ 88.606503817866795, 22.838697080562941 ], [ 88.606078118076482, 22.838291455345963 ], [ 88.605825584302593, 22.837692989702614 ], [ 88.605796723299846, 22.837373806949735 ], [ 88.606676983883176, 22.837400405541079 ], [ 88.606929517657093, 22.837433653772937 ], [ 88.606994454913234, 22.837732887494074 ], [ 88.607232558185771, 22.83775283638542 ], [ 88.607470661458322, 22.837633142993489 ], [ 88.607557244466506, 22.83751344949626 ], [ 88.608055096763636, 22.837480201283899 ], [ 88.608834343837401, 22.837559996979913 ], [ 88.610941197036851, 22.837679690436197 ], [ 88.613105772241752, 22.837852580798248 ], [ 88.616898288382032, 22.838037107769225 ], [ 88.617461077935303, 22.839320477616614 ], [ 88.618514504535042, 22.841341926811847 ], [ 88.618703904865512, 22.841614554174189 ], [ 88.616869427379299, 22.84243575768328 ], [ 88.617215759412105, 22.843074098686557 ], [ 88.61764506682772, 22.842887916203392 ], [ 88.618485643532296, 22.844526978238406 ], [ 88.617385317803155, 22.844989103721165 ], [ 88.617598167698304, 22.845308268605461 ], [ 88.617587344822269, 22.84540135822229 ], [ 88.617453862684627, 22.845411332106032 ], [ 88.617204936536069, 22.845148686256938 ], [ 88.617096707775829, 22.844982454444782 ], [ 88.616966833263533, 22.844975805168069 ], [ 88.61689828838206, 22.845168634060748 ] ] ] } },
{ "type": "Feature", "properties": { "fid": 14, "ward_no": 14, "name": null, "remarks": null }, "geometry": { "type": "Polygon", "coordinates": [ [ [ 88.618146526750209, 22.835450382529835 ], [ 88.618679553394372, 22.834600875274887 ], [ 88.619267596325045, 22.833224363023369 ], [ 88.617193211753687, 22.833683201987711 ], [ 88.611752912738652, 22.834986562200612 ], [ 88.607394901326103, 22.836023921610767 ], [ 88.600482691171749, 22.83777943490265 ], [ 88.598318115966848, 22.838524191274068 ], [ 88.59662974730702, 22.838869969632068 ], [ 88.597105953852122, 22.839056157614664 ], [ 88.598419129476412, 22.838816773018809 ], [ 88.600500729298474, 22.838324703360062 ], [ 88.600544020802616, 22.838404498560784 ], [ 88.601503649143467, 22.838497592902453 ], [ 88.606395589106555, 22.838863320056557 ], [ 88.606503817866795, 22.838697080562941 ], [ 88.606078118076482, 22.838291455345963 ], [ 88.605825584302593, 22.837692989702614 ], [ 88.605796723299846, 22.837373806949735 ], [ 88.606676983883176, 22.837400405541079 ], [ 88.606929517657093, 22.837433653772937 ], [ 88.606994454913234, 22.837732887494074 ], [ 88.607232558185771, 22.83775283638542 ], [ 88.607470661458322, 22.837633142993489 ], [ 88.607557244466506, 22.83751344949626 ], [ 88.608055096763636, 22.837480201283899 ], [ 88.608834343837401, 22.837559996979913 ], [ 88.610941197036851, 22.837679690436197 ], [ 88.613105772241752, 22.837852580798248 ], [ 88.616898288382032, 22.838037107769225 ], [ 88.616934364635455, 22.837079559686085 ], [ 88.617194113660048, 22.836554235305464 ], [ 88.617583737196924, 22.836294897205178 ], [ 88.618146526750209, 22.835450382529835 ] ] ] } },
{ "type": "Feature", "properties": { "fid": 15, "ward_no": 17, "name": null, "remarks": null }, "geometry": { "type": "Polygon", "coordinates": [ [ [ 88.638401990183226, 22.834935857731878 ], [ 88.638081362481032, 22.834659060872475 ], [ 88.637165025644279, 22.834206875002099 ], [ 88.637143379892223, 22.834014030570895 ], [ 88.637323761159308, 22.833654940212131 ], [ 88.637323761159308, 22.833521943542479 ], [ 88.63751135767707, 22.833521943542479 ], [ 88.637533003429112, 22.833129602609702 ], [ 88.63738869841545, 22.833036504595192 ], [ 88.636609451341684, 22.833069753893398 ], [ 88.636479576829402, 22.832996605426612 ], [ 88.636450715826655, 22.832657462021423 ], [ 88.636494007330754, 22.832125470663456 ], [ 88.636385778570514, 22.83199912241033 ], [ 88.636118814295244, 22.831892723790393 ], [ 88.635974509281581, 22.831786325087275 ], [ 88.635794128014425, 22.831651664109391 ], [ 88.635505517987127, 22.831651664109391 ], [ 88.635361212973464, 22.831605114604557 ], [ 88.634986019937941, 22.831598464673991 ], [ 88.634827284422926, 22.831671613892304 ], [ 88.63414905085871, 22.8317248132991 ], [ 88.633369803784959, 22.831930960804023 ], [ 88.6328719514878, 22.832057309120437 ], [ 88.632803406606357, 22.832155395232554 ], [ 88.631885265956939, 22.83132082978306 ], [ 88.629071318190555, 22.829365732118816 ], [ 88.628820588229303, 22.829262656462596 ], [ 88.628800746289912, 22.829503720375115 ], [ 88.628815176791278, 22.829769721438261 ], [ 88.628901759799462, 22.830261822034558 ], [ 88.628595111645453, 22.83098334469188 ], [ 88.628537389639973, 22.831691563672297 ], [ 88.628465237133142, 22.831877761477816 ], [ 88.628032322092167, 22.832243506425552 ], [ 88.628521606279207, 22.833253456119614 ], [ 88.628608189287391, 22.834051435762163 ], [ 88.628795785805139, 22.834344027125283 ], [ 88.628997812824281, 22.834842760953144 ], [ 88.629434335490586, 22.835614132340133 ], [ 88.629856427655511, 22.835870146877024 ], [ 88.629928580162343, 22.836215931980345 ], [ 88.630861151313184, 22.837501397020219 ], [ 88.631426646585467, 22.837289855111706 ], [ 88.631405000833425, 22.836890875371395 ], [ 88.631877599753167, 22.836611588857025 ], [ 88.632249185163332, 22.836581665267914 ], [ 88.632523364689291, 22.836671436015511 ], [ 88.632725391708391, 22.836877576026573 ], [ 88.632851658595342, 22.837077066062474 ], [ 88.6331005847439, 22.837422848098473 ], [ 88.633392802396571, 22.837695483314928 ], [ 88.633616475167756, 22.837838450344208 ], [ 88.63381489456151, 22.837894972151577 ], [ 88.634092681712801, 22.83769215849852 ], [ 88.63425863247852, 22.837612362880009 ], [ 88.634352430737394, 22.837499319007016 ], [ 88.634900789789313, 22.837136913016227 ], [ 88.635160538813892, 22.836894200207414 ], [ 88.635330097204957, 22.836867601517113 ], [ 88.635726935992508, 22.83650186899812 ], [ 88.636415992432759, 22.835959918094062 ], [ 88.636747893964156, 22.835750451828805 ], [ 88.636960743859319, 22.835567584190738 ], [ 88.637043719242186, 22.835427939647083 ], [ 88.63723853101061, 22.835218472562875 ], [ 88.637534356288626, 22.834975756331829 ], [ 88.63791676457484, 22.834866035153787 ], [ 88.638169298348714, 22.834884322022948 ], [ 88.638276625202622, 22.834933364068991 ], [ 88.638401990183226, 22.834935857731878 ] ] ] } },
{ "type": "Feature", "properties": { "fid": 16, "ward_no": 16, "name": null, "remarks": null }, "geometry": { "type": "Polygon", "coordinates": [ [ [ 88.619267596325045, 22.833224363023369 ], [ 88.620200167475744, 22.833122121521622 ], [ 88.621051567056355, 22.833321617063493 ], [ 88.621859675132853, 22.833068922661059 ], [ 88.622436895187491, 22.832869426748729 ], [ 88.624024250337754, 22.83316202065339 ], [ 88.624399443373278, 22.832949225148756 ], [ 88.626999188385085, 22.83316035818984 ], [ 88.627020834137141, 22.833672396015423 ], [ 88.627215645905579, 22.833938388930644 ], [ 88.627561977938356, 22.834437124245248 ], [ 88.627504255932905, 22.83468981610693 ], [ 88.625527277245737, 22.837037168078727 ], [ 88.624978918193833, 22.837529242394318 ], [ 88.624372837136463, 22.837582439511021 ], [ 88.624044543230369, 22.837668884781301 ], [ 88.623763148453747, 22.837865048844744 ], [ 88.623532260431858, 22.83811440953404 ], [ 88.623391563043555, 22.838520035278876 ], [ 88.622918964123798, 22.838510060889817 ], [ 88.622334528818485, 22.838466838528792 ], [ 88.621999019661715, 22.838466838528792 ], [ 88.619675708941799, 22.838387043364648 ], [ 88.618146526750209, 22.835450382529835 ], [ 88.618679553394372, 22.834600875274887 ], [ 88.619267596325045, 22.833224363023369 ] ] ] } },
{ "type": "Feature", "properties": { "fid": 17, "ward_no": 18, "name": null, "remarks": null }, "geometry": { "type": "Polygon", "coordinates": [ [ [ 88.619267596325045, 22.833224363023369 ], [ 88.619868265944362, 22.831659145278326 ], [ 88.620445485999014, 22.831073950377355 ], [ 88.621138150064596, 22.829265150229396 ], [ 88.621960688642446, 22.82967745237837 ], [ 88.622263729171138, 22.829743952608009 ], [ 88.6223052168626, 22.829655839796743 ], [ 88.622584807826556, 22.829599314567027 ], [ 88.622648843176322, 22.829570220689636 ], [ 88.623024036211859, 22.829574376958213 ], [ 88.623193594602924, 22.829649189770933 ], [ 88.623345114867263, 22.829700727462434 ], [ 88.623429894062781, 22.830061490756531 ], [ 88.623689643087346, 22.830033228228846 ], [ 88.624035975120123, 22.829920178059407 ], [ 88.626171689322305, 22.830279278273032 ], [ 88.627203470169974, 22.830625077583242 ], [ 88.627470434445257, 22.831083925311521 ], [ 88.628032322092167, 22.832243506425552 ], [ 88.628521606279207, 22.833253456119614 ], [ 88.626999188385085, 22.83316035818984 ], [ 88.624399443373278, 22.832949225148756 ], [ 88.624024250337754, 22.83316202065339 ], [ 88.622436895187491, 22.832869426748729 ], [ 88.621051567056355, 22.833321617063493 ], [ 88.620200167475744, 22.833122121521622 ], [ 88.619267596325045, 22.833224363023369 ] ] ] } },
{ "type": "Feature", "properties": { "fid": 18, "ward_no": 19, "name": null, "remarks": null }, "geometry": { "type": "Polygon", "coordinates": [ [ [ 88.621138150064596, 22.829265150229396 ], [ 88.621568359386544, 22.82818118862156 ], [ 88.621575574637234, 22.827429725507869 ], [ 88.621528675507804, 22.827359899078683 ], [ 88.621063291838723, 22.82733994866377 ], [ 88.62070613692994, 22.827449675909627 ], [ 88.620691706428573, 22.827589328640066 ], [ 88.62020828463281, 22.827589328640066 ], [ 88.619919674605498, 22.827589328640066 ], [ 88.619789800093201, 22.827516177227707 ], [ 88.619486759564509, 22.827562728131031 ], [ 88.619306378297424, 22.827290072613682 ], [ 88.619371315553579, 22.827137119279456 ], [ 88.619789800093187, 22.826817911767467 ], [ 88.619869167850709, 22.826691558587186 ], [ 88.619861952600033, 22.826392300587095 ], [ 88.619999042363006, 22.826179494497879 ], [ 88.620128916875302, 22.8260597909265 ], [ 88.620453603156022, 22.826039840321037 ], [ 88.620857657194279, 22.826006589305429 ], [ 88.62121120447776, 22.825886885582008 ], [ 88.62191829904468, 22.825694029361756 ], [ 88.622408936091134, 22.82558762581294 ], [ 88.622863496884165, 22.825600926261092 ], [ 88.623491223693591, 22.825561024912741 ], [ 88.624465282535795, 22.825394769168732 ], [ 88.625381619372533, 22.82523516346345 ], [ 88.625966054677846, 22.825228513221667 ], [ 88.626471122225681, 22.825314966339477 ], [ 88.629905581550773, 22.827622579269047 ], [ 88.630006595060351, 22.827419750305886 ], [ 88.63026634408493, 22.827393149763708 ], [ 88.630623498993756, 22.827359899078679 ], [ 88.631175465670992, 22.827413100170826 ], [ 88.631882560237941, 22.827472951374641 ], [ 88.63251175264503, 22.827614214658411 ], [ 88.631799584855131, 22.828852846831403 ], [ 88.633011746969871, 22.82964420225133 ], [ 88.634332137844865, 22.830548602811422 ], [ 88.635472147452774, 22.831266798974937 ], [ 88.635974509281581, 22.831786325087275 ], [ 88.635794128014425, 22.831651664109391 ], [ 88.635505517987127, 22.831651664109391 ], [ 88.635361212973464, 22.831605114604557 ], [ 88.634986019937941, 22.831598464673991 ], [ 88.634827284422926, 22.831671613892304 ], [ 88.63414905085871, 22.8317248132991 ], [ 88.633369803784959, 22.831930960804023 ], [ 88.6328719514878, 22.832057309120437 ], [ 88.632803406606357, 22.832155395232554 ], [ 88.631885265956939, 22.83132082978306 ], [ 88.629071318190555, 22.829365732118816 ], [ 88.628820588229303, 22.829262656462596 ], [ 88.628800746289912, 22.829503720375115 ], [ 88.628815176791278, 22.829769721438261 ], [ 88.628901759799462, 22.830261822034558 ], [ 88.628595111645453, 22.83098334469188 ], [ 88.628537389639973, 22.831691563672297 ], [ 88.628465237133142, 22.831877761477816 ], [ 88.628032322092167, 22.832243506425552 ], [ 88.627470434445257, 22.831083925311521 ], [ 88.627203470169974, 22.830625077583242 ], [ 88.626171689322305, 22.830279278273032 ], [ 88.624035975120123, 22.829920178059407 ], [ 88.623689643087346, 22.830033228228846 ], [ 88.623429894062781, 22.830061490756531 ], [ 88.623345114867263, 22.829700727462434 ], [ 88.623193594602924, 22.829649189770933 ], [ 88.623024036211859, 22.829574376958213 ], [ 88.622648843176322, 22.829570220689636 ], [ 88.622584807826556, 22.829599314567027 ], [ 88.6223052168626, 22.829655839796743 ], [ 88.622263729171138, 22.829743952608009 ], [ 88.621960688642446, 22.82967745237837 ], [ 88.621138150064596, 22.829265150229396 ] ] ] } },
{ "type": "Feature", "properties": { "fid": 19, "ward_no": 15, "name": null, "remarks": null }, "geometry": { "type": "Polygon", "coordinates": [ [ [ 88.59662974730702, 22.838869969632068 ], [ 88.596590063428224, 22.838791005901754 ], [ 88.596370900188717, 22.83862310392292 ], [ 88.596605395835923, 22.838500086499966 ], [ 88.59651520520238, 22.838310572955024 ], [ 88.596010137654574, 22.837771954070163 ], [ 88.595793680134079, 22.83749599418573 ], [ 88.595663805621797, 22.837027193580873 ], [ 88.595739565753945, 22.836907499550552 ], [ 88.59568905899917, 22.83667476085683 ], [ 88.595873047891587, 22.835730502643813 ], [ 88.596020960530595, 22.835361442194902 ], [ 88.596075074910658, 22.835589195833432 ], [ 88.596295140056512, 22.835792012621305 ], [ 88.59676773897624, 22.835934981650748 ], [ 88.597013057499467, 22.83594828108772 ], [ 88.597058152816217, 22.835984854532665 ], [ 88.597137520573739, 22.836112861512554 ], [ 88.597499748705715, 22.836316041175309 ], [ 88.598030069630909, 22.836525506569835 ], [ 88.598278995779467, 22.836764895197284 ], [ 88.598576624870148, 22.837198786010962 ], [ 88.599112357233366, 22.837029219650788 ], [ 88.599593975216465, 22.836789831488417 ], [ 88.600568034058668, 22.836395837554111 ], [ 88.607851829623186, 22.833632860695865 ], [ 88.610676600265592, 22.833044349352186 ], [ 88.612007814016607, 22.832974525803532 ], [ 88.611877939504296, 22.832665306800269 ], [ 88.611964522512523, 22.83242591096035 ], [ 88.611520784595498, 22.831468323389352 ], [ 88.611639836231774, 22.830949627308382 ], [ 88.612797883966408, 22.830730178371322 ], [ 88.612934522776214, 22.830475193224448 ], [ 88.612865526941548, 22.830016966882098 ], [ 88.612897995569611, 22.829800010198188 ], [ 88.612757298181293, 22.829333676844943 ], [ 88.612627423668997, 22.828829935277831 ], [ 88.612935875635699, 22.828540657099524 ], [ 88.61390181732088, 22.828066838065496 ], [ 88.614545778444324, 22.828056862910209 ], [ 88.6152465596669, 22.827914716867948 ], [ 88.615606420294725, 22.827897260326214 ], [ 88.61563618320379, 22.827630424338107 ], [ 88.615898637947382, 22.827595511179474 ], [ 88.616276085748751, 22.82762294294773 ], [ 88.616305848657831, 22.827268823332588 ], [ 88.616178679864518, 22.826708963329068 ], [ 88.616860521054065, 22.826484519919369 ], [ 88.617277201781008, 22.826290001998288 ], [ 88.617872459962371, 22.826280026712794 ], [ 88.618202557681101, 22.826334890773982 ], [ 88.618565124027938, 22.826290001998288 ], [ 88.61884651880456, 22.826339878414807 ], [ 88.61902509625898, 22.827252613609843 ], [ 88.619149559333252, 22.827302489673659 ], [ 88.619306378297424, 22.827290072613682 ], [ 88.619486759564509, 22.827562728131031 ], [ 88.619789800093201, 22.827516177227707 ], [ 88.619919674605498, 22.827589328640066 ], [ 88.62020828463281, 22.827589328640066 ], [ 88.620691706428573, 22.827589328640066 ], [ 88.62070613692994, 22.827449675909627 ], [ 88.621063291838723, 22.82733994866377 ], [ 88.621528675507804, 22.827359899078683 ], [ 88.621575574637234, 22.827429725507869 ], [ 88.621568359386544, 22.82818118862156 ], [ 88.621138150064596, 22.829265150229396 ], [ 88.620445485999014, 22.831073950377355 ], [ 88.619868265944362, 22.831659145278326 ], [ 88.619267596325045, 22.833224363023369 ], [ 88.617193211753687, 22.833683201987711 ], [ 88.611752912738652, 22.834986562200612 ], [ 88.607394901326103, 22.836023921610767 ], [ 88.600482691171749, 22.83777943490265 ], [ 88.598318115966848, 22.838524191274068 ], [ 88.59662974730702, 22.838869969632068 ] ] ] } },
{ "type": "Feature", "properties": { "fid": 20, "ward_no": 21, "name": null, "remarks": null }, "geometry": { "type": "Polygon", "coordinates": [ [ [ 88.631052017241288, 22.822339731773891 ], [ 88.631052017241288, 22.822339731773891 ], [ 88.631214360381662, 22.822175134693804 ], [ 88.63101954861321, 22.821302268064827 ], [ 88.630992491423171, 22.820823435994456 ], [ 88.630932965605012, 22.820628909984869 ], [ 88.630413467555854, 22.820399468693289 ], [ 88.630662393704412, 22.820165039148229 ], [ 88.630418878993865, 22.820145087678952 ], [ 88.630451347621914, 22.820035354545666 ], [ 88.630581222134211, 22.819995451566179 ], [ 88.630564987820193, 22.819830851652203 ], [ 88.630429701869886, 22.819761021325558 ], [ 88.630418878993865, 22.819631336338205 ], [ 88.630624513638324, 22.819636324224621 ], [ 88.630564987820193, 22.819511627009497 ], [ 88.630673216580433, 22.81942683283798 ], [ 88.630527107754105, 22.819127558869429 ], [ 88.630326884547642, 22.819077679810722 ], [ 88.630224067225399, 22.818923054612629 ], [ 88.629921026696707, 22.818858211735375 ], [ 88.629347414267428, 22.818952982084028 ], [ 88.628849561970284, 22.819391917575544 ], [ 88.628135252152688, 22.81978097285111 ], [ 88.627361416516919, 22.819481699660873 ], [ 88.626809449839683, 22.818329491737753 ], [ 88.62637653479868, 22.817985323843818 ], [ 88.625678459295102, 22.817825709452848 ], [ 88.624141610899628, 22.816698427490405 ], [ 88.624379714172164, 22.815561160126293 ], [ 88.623957622007225, 22.814733143702973 ], [ 88.623275780817664, 22.814104645948898 ], [ 88.623340718073834, 22.813496097741037 ], [ 88.622777928520549, 22.812977333187639 ], [ 88.622842865776676, 22.812568305896775 ], [ 88.622377482107638, 22.812029585151787 ], [ 88.622431596487758, 22.811431004047495 ], [ 88.622558765281028, 22.811004513406054 ], [ 88.622564176719038, 22.810575527320331 ], [ 88.622369364950615, 22.810455810032057 ], [ 88.622033855793845, 22.810465786476762 ], [ 88.621503534868637, 22.810356045544797 ], [ 88.62110308845574, 22.810410916021834 ], [ 88.620994859695486, 22.81036602199681 ], [ 88.620437481580225, 22.810291198588907 ], [ 88.619950452159117, 22.810670303432275 ], [ 88.619896337778997, 22.810939666758841 ], [ 88.619485068490064, 22.811328746179139 ], [ 88.619246965217528, 22.811807611632457 ], [ 88.619236142341492, 22.812216641207474 ], [ 88.619593297250319, 22.812565811824165 ], [ 88.619560828622241, 22.812944910337457 ], [ 88.619723171762601, 22.813104530448463 ], [ 88.619777286142735, 22.813523532349915 ], [ 88.619452599862001, 22.814002390087623 ], [ 88.619485068490064, 22.814690745136193 ], [ 88.619311902473655, 22.815199527066593 ], [ 88.618911456060758, 22.815688354974206 ], [ 88.618922278936779, 22.815917804203355 ], [ 88.618738290044362, 22.816286917369574 ], [ 88.618305375003388, 22.816685957505019 ], [ 88.617872459962399, 22.816895453108089 ], [ 88.61743954492141, 22.817254587677876 ], [ 88.61733131616117, 22.817434154607628 ], [ 88.617504482177566, 22.817643649059754 ], [ 88.618034803102773, 22.817992805763801 ], [ 88.617929280061546, 22.818091317671968 ], [ 88.617931985780544, 22.818208534279957 ], [ 88.617653296722921, 22.818278365402723 ], [ 88.617426016326391, 22.818240955877119 ], [ 88.617136504392732, 22.818083835757381 ], [ 88.616814523830982, 22.818093811643397 ], [ 88.616433017451143, 22.818093811643397 ], [ 88.616170562707538, 22.818133715180121 ], [ 88.615899990806923, 22.818166136795096 ], [ 88.615824230674761, 22.818303305080743 ], [ 88.621208611496954, 22.821984351465627 ], [ 88.626230425972395, 22.825161543190582 ], [ 88.62506696679975, 22.822852225953472 ], [ 88.625526939030777, 22.822712568363389 ], [ 88.62656593512915, 22.822642739514642 ], [ 88.627539993971354, 22.822642739514642 ], [ 88.628654750201875, 22.822542983954282 ], [ 88.629304122763344, 22.822273643576256 ], [ 88.630808502530755, 22.822303570311238 ], [ 88.631052017241288, 22.822339731773891 ] ] ] } },
{ "type": "Feature", "properties": { "fid": 21, "ward_no": 20, "name": null, "remarks": null }, "geometry": { "type": "Polygon", "coordinates": [ [ [ 88.626230425972395, 22.825161543190582 ], [ 88.626471122225681, 22.825314966339477 ], [ 88.629905581550773, 22.827622579269047 ], [ 88.630006595060351, 22.827419750305886 ], [ 88.63026634408493, 22.827393149763708 ], [ 88.630623498993756, 22.827359899078679 ], [ 88.631175465670992, 22.827413100170826 ], [ 88.631882560237941, 22.827472951374641 ], [ 88.63251175264503, 22.827614214658411 ], [ 88.631805559984429, 22.827334909105314 ], [ 88.631194067489062, 22.827132910982112 ], [ 88.631391584976512, 22.826888517790355 ], [ 88.631813677141466, 22.826793752965287 ], [ 88.632030134661946, 22.826519433362932 ], [ 88.632311529438596, 22.826389754813022 ], [ 88.633263942528757, 22.826304964925139 ], [ 88.633307234032856, 22.826140372639063 ], [ 88.633426285669117, 22.825965804845453 ], [ 88.633393817041039, 22.825766298521504 ], [ 88.63313406801646, 22.825746347873022 ], [ 88.632998782066153, 22.825651582252831 ], [ 88.633047485008262, 22.825526890546801 ], [ 88.632771501669637, 22.825357309643323 ], [ 88.632544221273108, 22.825382248024727 ], [ 88.632349409504684, 22.825217654623007 ], [ 88.631683802629169, 22.824895948763224 ], [ 88.630828795423227, 22.824641576149837 ], [ 88.63069892091093, 22.824546809760594 ], [ 88.630747623853054, 22.824362264497477 ], [ 88.630747623853054, 22.823728823448107 ], [ 88.63098031568758, 22.823409607944175 ], [ 88.630931612745499, 22.822658949786277 ], [ 88.631077721571842, 22.82253425533926 ], [ 88.631052017241288, 22.822339731773891 ], [ 88.629304122763344, 22.822273643576256 ], [ 88.628654750201875, 22.822542983954282 ], [ 88.627539993971354, 22.822642739514642 ], [ 88.62656593512915, 22.822642739514642 ], [ 88.625526939030777, 22.822712568363389 ], [ 88.62506696679975, 22.822852225953472 ], [ 88.626230425972395, 22.825161543190582 ] ] ] } },
{ "type": "Feature", "properties": { "fid": 22, "ward_no": 22, "name": null, "remarks": null }, "geometry": { "type": "Polygon", "coordinates": [ [ [ 88.596020960530595, 22.835361442194902 ], [ 88.596060306194431, 22.835025577613926 ], [ 88.595557042459305, 22.833903425438319 ], [ 88.595513750955206, 22.833698943378419 ], [ 88.595129538856341, 22.832846100254365 ], [ 88.595097070228277, 22.832422170396946 ], [ 88.595524573831213, 22.831893503077378 ], [ 88.596287586590961, 22.831160347829638 ], [ 88.597483514391669, 22.830452126084836 ], [ 88.59832769872159, 22.82995337616568 ], [ 88.599328814753846, 22.828788787988177 ], [ 88.599366694819935, 22.828127935875621 ], [ 88.599193528803539, 22.827684040957106 ], [ 88.599069065729253, 22.827170318064553 ], [ 88.599220585993606, 22.826506964276945 ], [ 88.599713026852712, 22.825679014412795 ], [ 88.600362399414195, 22.824935850306478 ], [ 88.600854840273314, 22.82471140397336 ], [ 88.601174115116009, 22.82414779266113 ], [ 88.601693613165196, 22.823080416171805 ], [ 88.601742316107305, 22.822372152387388 ], [ 88.602451214486919, 22.821863397254361 ], [ 88.603685022353702, 22.821219968922534 ], [ 88.604512972369591, 22.820980552953127 ], [ 88.605232693625226, 22.821145151477324 ], [ 88.606439444301969, 22.821604031160824 ], [ 88.606737073392623, 22.821888336275777 ], [ 88.606742484830647, 22.822177628590406 ], [ 88.607440560334226, 22.822521785888256 ], [ 88.607943824069352, 22.822422030239281 ], [ 88.610265330976645, 22.822606578132426 ], [ 88.610763183273775, 22.822870930084086 ], [ 88.611298915636993, 22.823299877441809 ], [ 88.611650659107781, 22.823479436399587 ], [ 88.611921231008395, 22.823519338358047 ], [ 88.612321677421306, 22.823783688537443 ], [ 88.612684243768115, 22.823888430919368 ], [ 88.613696182676421, 22.823928332757962 ], [ 88.613815234312696, 22.823843541336984 ], [ 88.614031691833176, 22.823853516801012 ], [ 88.614583658510426, 22.823718847974909 ], [ 88.614827173220974, 22.823469460908143 ], [ 88.615173505253779, 22.823180171338393 ], [ 88.615287145452029, 22.822990636459394 ], [ 88.615200562443846, 22.822721296966936 ], [ 88.615108567997623, 22.822646480346698 ], [ 88.614821761782963, 22.822461932507647 ], [ 88.614697298708691, 22.822202567554271 ], [ 88.614594481386447, 22.822117775058508 ], [ 88.614583658510426, 22.821718750840059 ], [ 88.614816350344967, 22.82132471327678 ], [ 88.61484340753502, 22.820960601603343 ], [ 88.61497328204733, 22.820800990699802 ], [ 88.615254676823952, 22.820691258095096 ], [ 88.615330436956128, 22.820586513253559 ], [ 88.615243853947916, 22.820451841196046 ], [ 88.615238442509934, 22.820177508815021 ], [ 88.614756824526836, 22.819638818167732 ], [ 88.614756824526836, 22.819274701986132 ], [ 88.61584452356729, 22.818416780558053 ], [ 88.615824230674761, 22.818303305080743 ], [ 88.621208611496954, 22.821984351465627 ], [ 88.626230425972395, 22.825161543190582 ], [ 88.626471122225681, 22.825314966339477 ], [ 88.625966054677846, 22.825228513221667 ], [ 88.625381619372533, 22.82523516346345 ], [ 88.624465282535795, 22.825394769168732 ], [ 88.623491223693591, 22.825561024912741 ], [ 88.622863496884165, 22.825600926261092 ], [ 88.622408936091134, 22.82558762581294 ], [ 88.62191829904468, 22.825694029361756 ], [ 88.62121120447776, 22.825886885582008 ], [ 88.620857657194279, 22.826006589305429 ], [ 88.620453603156022, 22.826039840321037 ], [ 88.620128916875302, 22.8260597909265 ], [ 88.619999042363006, 22.826179494497879 ], [ 88.619861952600033, 22.826392300587095 ], [ 88.619869167850709, 22.826691558587186 ], [ 88.619789800093187, 22.826817911767467 ], [ 88.619371315553579, 22.827137119279456 ], [ 88.619306378297424, 22.827290072613682 ], [ 88.619149559333252, 22.827302489673659 ], [ 88.61902509625898, 22.827252613609843 ], [ 88.61884651880456, 22.826339878414807 ], [ 88.618565124027938, 22.826290001998288 ], [ 88.618202557681101, 22.826334890773982 ], [ 88.617872459962371, 22.826280026712794 ], [ 88.617277201781008, 22.826290001998288 ], [ 88.616860521054065, 22.826484519919369 ], [ 88.616178679864518, 22.826708963329068 ], [ 88.616305848657831, 22.827268823332588 ], [ 88.616276085748751, 22.82762294294773 ], [ 88.615898637947382, 22.827595511179474 ], [ 88.61563618320379, 22.827630424338107 ], [ 88.615606420294725, 22.827897260326214 ], [ 88.6152465596669, 22.827914716867948 ], [ 88.614545778444324, 22.828056862910209 ], [ 88.61390181732088, 22.828066838065496 ], [ 88.612935875635699, 22.828540657099524 ], [ 88.612627423668997, 22.828829935277831 ], [ 88.612897995569611, 22.829800010198188 ], [ 88.612865526941548, 22.830016966882098 ], [ 88.612934522776214, 22.830475193224448 ], [ 88.612797883966408, 22.830730178371322 ], [ 88.611639836231774, 22.830949627308382 ], [ 88.611520784595498, 22.831468323389352 ], [ 88.611964522512523, 22.83242591096035 ], [ 88.611877939504296, 22.832665306800269 ], [ 88.612007814016607, 22.832974525803532 ], [ 88.610676600265592, 22.833044349352186 ], [ 88.607851829623186, 22.833632860695865 ], [ 88.600568034058668, 22.836395837554111 ], [ 88.599593975216465, 22.836789831488417 ], [ 88.599112357233366, 22.837029219650788 ], [ 88.598576624870148, 22.837198786010962 ], [ 88.598278995779467, 22.836764895197284 ], [ 88.598030069630909, 22.836525506569835 ], [ 88.597499748705715, 22.836316041175309 ], [ 88.597137520573739, 22.836112861512554 ], [ 88.597058152816217, 22.835984854532665 ], [ 88.597013057499467, 22.83594828108772 ], [ 88.59676773897624, 22.835934981650748 ], [ 88.596295140056512, 22.835792012621305 ], [ 88.596075074910658, 22.835589195833432 ], [ 88.596020960530595, 22.835361442194902 ] ] ] } }
]
}
